X,Y,Name,description,Sample_ID_new,DNA_ID_GenBank_NO,chemotype,lineage,Phenotype,Country,GPS_coordinates,Haplotype_number,LatDeg,LongDeg,Lat,Long,Acc_No_1,Acc_No_2
-150.5041833,68.08975,T. vermicularis v. subuliformis,"Sample ID new: USA_Summit_213<br>DNA ID/GenBank NO: 213<br>chemotype: UV+<br>lineage: lineage A<br>Phenotype: cylindrical, UV+<br>Country: U.S.A.<br>GPS coordinates: 68.0897500°, -150.5041833°<br>Haplotype number: H1",USA_Summit_213,213,UV+,lineage A,"cylindrical, UV+",U.S.A.,"68.0897500°, -150.5041833°",H1,68.08975,-150.5041833,68.08975,-150.5041833,KY559136,
-69.2,77.48333,T. vermicularis v. subuliformis,"Sample ID new: Greenland_ Qaanaaq_263<br>DNA ID/GenBank NO: 263<br>chemotype: UV+<br>lineage: lineage C<br>Phenotype: cylindrical, UV+<br>Country: Greenland<br>GPS coordinates: 77.4833300°,  -069.2000000°<br>Haplotype number: H1",Greenland_ Qaanaaq_263,263,UV+,lineage C,"cylindrical, UV+",Greenland,"77.4833300°, -069.2000000°",H1,77.48333,-69.2,77.48333,-69.2,KY559146,
-75.9333333,-11.2833333,"flat, UV+","Sample ID new: Peru_Tarma_392.2<br>DNA ID/GenBank NO: 392.2<br>chemotype: UV+<br>lineage: lineage C<br>Phenotype: flat, UV+<br>Country: Peru<br>GPS coordinates: -11.2833333°, -075.9333333°<br>Haplotype number: H1",Peru_Tarma_392.2,392.2,UV+,lineage C,"flat, UV+",Peru,"-11.2833333°, -075.9333333°",H1,-11.2833333,-75.9333333,-11.2833333,-75.9333333,,
65.52027783,61.07833333,T. vermicularis v. subuliformis,"Sample ID new: Russia_Ural_284.1<br>DNA ID/GenBank NO: 284.1<br>chemotype: UV+<br>lineage: lineage C<br>Phenotype: cylindrical, UV+<br>Country: Russia<br>GPS coordinates: 61°04.70000', 065°31.21667'<br>Haplotype number: H1",Russia_Ural_284.1,284.1,UV+,lineage C,"cylindrical, UV+",Russia,"61°04.70000', 065°31.21667'",H1,61 04.70000',065 31.21667',61.078333,65.520278,KY559226,
65.52027783,61.07833333,"cylindrical, UV-","Sample ID new: Russia_Ural_284.2<br>DNA ID/GenBank NO: 284.2<br>chemotype: UV-<br>lineage: lineage C<br>Phenotype: cylindrical, UV-<br>Country: Russia<br>GPS coordinates: 61°04.70000', 065°31.21667'<br>Haplotype number: H1",Russia_Ural_284.2,284.2,UV-,lineage C,"cylindrical, UV-",Russia,"61°04.70000', 065°31.21667'",H1,61 04.70000',065 31.21667',61.078333,65.520278,KY559194,
-154.61008,67.3382151,T. vermicularis v. subuliformis,"Sample ID new: USA_Kurupa_209.2<br>DNA ID/GenBank NO: 209.2<br>chemotype: UV+<br>lineage: lineage C<br>Phenotype: cylindrical, UV+<br>Country: U.S.A.<br>GPS coordinates: 67.3382151°, -154.6100800°<br>Haplotype number: H1",USA_Kurupa_209.2,209.2,UV+,lineage C,"cylindrical, UV+",U.S.A.,"67.3382151°, -154.6100800°",H1,67.3382151,-154.61008,67.3382151,-154.61008,KY559108,
-77.1666667,-9.8333333,"flat, UV+","Sample ID new: Peru_Bolognesi_393<br>DNA ID/GenBank NO: 393<br>chemotype: UV+<br>lineage: lineage C<br>Phenotype: flat, UV+<br>Country: Peru<br>GPS coordinates:  -09.8333333°, -077.1666667°<br>Haplotype number: H1",Peru_Bolognesi_393,393,UV+,lineage C,"flat, UV+",Peru," -09.8333333°, -077.1666667°",H1,-9.8333333,-77.1666667,-9.8333333,-77.1666667,,
74.3213889,70.5166667,T. vermicularis v. subuliformis,"Sample ID new: Russia_Gydan_331<br>DNA ID/GenBank NO: 331<br>chemotype: UV+<br>lineage: lineage A<br>Phenotype: cylindrical, UV+<br>Country: Russia<br>GPS coordinates: 70.5166667°, 074.3213889°<br>Haplotype number: H9",Russia_Gydan_331,331,UV+,lineage A,"cylindrical, UV+",Russia,"70.5166667°, 074.3213889°",H9,70.5166667,74.3213889,70.5166667,74.3213889,KY559228,
-173.83806,52.10667,"cylindrical, UV-","Sample ID new: USA_Aleutian_286<br>DNA ID/GenBank NO: 286<br>chemotype: UV-<br>lineage: lineage C<br>Phenotype: cylindrical, UV-<br>Country: U.S.A.<br>GPS coordinates: 52.1066700°, -173.8380600°<br>Haplotype number: H1",USA_Aleutian_286,286,UV-,lineage C,"cylindrical, UV-",U.S.A.,"52.1066700°, -173.8380600°",H1,52.10667,-173.83806,52.10667,-173.83806,KY559150,
-45.4166667,61.1666667,T. vermicularis v. subuliformis,"Sample ID new: Greenland_Narssarsuaq_260<br>DNA ID/GenBank NO: 260<br>chemotype: UV+<br>lineage: lineage C<br>Phenotype: cylindrical, UV+<br>Country: Greenland<br>GPS coordinates: 61.1666667°, -045.4166667°<br>Haplotype number: H1",Greenland_Narssarsuaq_260,260,UV+,lineage C,"cylindrical, UV+",Greenland,"61.1666667°, -045.4166667°",H1,61.1666667,-45.4166667,61.1666667,-45.4166667,KY559145,
-77.6833333,-9.55,"flat, UV-","Sample ID new: Peru_Huaraz_394.2<br>DNA ID/GenBank NO: 394.2<br>chemotype: UV-<br>lineage: lineage C<br>Phenotype: flat, UV-<br>Country: Peru<br>GPS coordinates: -09.5500000°, -077.6833333°<br>Haplotype number: H1",Peru_Huaraz_394.2,394.2,UV-,lineage C,"flat, UV-",Peru,"-09.5500000°, -077.6833333°",H1,-9.55,-77.6833333,-9.55,-77.6833333,,
74.0094444,69.8383333,T. vermicularis v. subuliformis,"Sample ID new: Russia_Gydan_332<br>DNA ID/GenBank NO: 332<br>chemotype: UV+<br>lineage: lineage A<br>Phenotype: cylindrical, UV+<br>Country: Russia<br>GPS coordinates: 69.8383333°, 074.0094444°<br>Haplotype number: H10",Russia_Gydan_332,332,UV+,lineage A,"cylindrical, UV+",Russia,"69.8383333°, 074.0094444°",H10,69.8383333,74.0094444,69.8383333,74.0094444,KY559237,
-163.403,54.836,"cylindrical, UV-","Sample ID new: USA_Aleutian_287.1<br>DNA ID/GenBank NO: 287.1<br>chemotype: UV-<br>lineage: lineage C<br>Phenotype: cylindrical, UV-<br>Country: U.S.A.<br>GPS coordinates: 54.8360000°,  -163.4030000°<br>Haplotype number: H1",USA_Aleutian_287.1,287.1,UV-,lineage C,"cylindrical, UV-",U.S.A.,"54.8360000°,  -163.4030000°",H1,54.836,-163.403,54.836,-163.403,KY559151,
-163.403,54.836,T. vermicularis v. subuliformis,"Sample ID new: USA_Aleutian_287.2<br>DNA ID/GenBank NO: 287.2<br>chemotype: UV+<br>lineage: lineage C<br>Phenotype: cylindrical, UV+<br>Country: U.S.A.<br>GPS coordinates: 54.8360000°,  -163.4030000°<br>Haplotype number: H1",USA_Aleutian_287.2,287.2,UV+,lineage C,"cylindrical, UV+",U.S.A.,"54.8360000°,  -163.4030000°",H1,54.836,-163.403,54.836,-163.403,KY559152,
-163.403,54.836,T. vermicularis v. subuliformis,"Sample ID new: USA_Aleutian_288<br>DNA ID/GenBank NO: 288<br>chemotype: UV+<br>lineage: lineage C<br>Phenotype: cylindrical, UV+<br>Country: U.S.A.<br>GPS coordinates: 54.8360000°,  -163.4030000°<br>Haplotype number: H1",USA_Aleutian_288,288,UV+,lineage C,"cylindrical, UV+",U.S.A.,"54.8360000°,  -163.4030000°",H1,54.836,-163.403,54.836,-163.403,KY559239,
-32.4447278,83.6156417,T. vermicularis v. subuliformis,"Sample ID new: Greenland_CapeMorrisJesup_262<br>DNA ID/GenBank NO: 262<br>chemotype: UV+<br>lineage: lineage C<br>Phenotype: cylindrical, UV+<br>Country: Greenland<br>GPS coordinates:  83.6156417°, -032.4447278°<br>Haplotype number: H5",Greenland_CapeMorrisJesup_262,262,UV+,lineage C,"cylindrical, UV+",Greenland," 83.6156417°, -032.4447278°",H5,83.6156417,-32.4447278,83.6156417,-32.4447278,KY559110,
-77.1666667,-9.8333333,"flat, UV-","Sample ID new: Peru_Ancash_395.2<br>DNA ID/GenBank NO: 395.2<br>chemotype: UV-<br>lineage: lineage C<br>Phenotype: flat, UV-<br>Country: Peru<br>GPS coordinates:  -09.8333333°, -077.1666667°<br>Haplotype number: H1",Peru_Ancash_395.2,395.2,UV-,lineage C,"flat, UV-",Peru," -09.8333333°, -077.1666667°",H1,-9.8333333,-77.1666667,-9.8333333,-77.1666667,,
71.3791667,71.3061111,"cylindrical, UV-","Sample ID new: Russia_Yamal_333<br>DNA ID/GenBank NO: 333<br>chemotype: UV-<br>lineage: lineage C<br>Phenotype: cylindrical, UV-<br>Country: Russia<br>GPS coordinates:  71.3061111°, 071.3791667°<br>Haplotype number: H1",Russia_Yamal_333,333,UV-,lineage C,"cylindrical, UV-",Russia," 71.3061111°, 071.3791667°",H1,71.3061111,71.3791667,71.3061111,71.3791667,KY559161,KY559106
-164.96745,54.12237,"cylindrical, UV-","Sample ID new: USA_Aleutian_291.1<br>DNA ID/GenBank NO: 291.1<br>chemotype: UV-<br>lineage: lineage C<br>Phenotype: cylindrical, UV-<br>Country: U.S.A.<br>GPS coordinates:  54.1223700°, -164.9674500°<br>Haplotype number: H1",USA_Aleutian_291.1,291.1,UV-,lineage C,"cylindrical, UV-",U.S.A.," 54.1223700°, -164.9674500°",H1,54.12237,-164.96745,54.12237,-164.96745,KY559153,
-164.96745,54.12237,T. vermicularis v. subuliformis,"Sample ID new: USA_Aleutian_291.2<br>DNA ID/GenBank NO: 291.2<br>chemotype: UV+<br>lineage: lineage A<br>Phenotype: cylindrical, UV+<br>Country: U.S.A.<br>GPS coordinates: 54.12237, -164.96745<br>Haplotype number: H9",USA_Aleutian_291.2,291.2,UV+,lineage A,"cylindrical, UV+",U.S.A.,"54.12237, -164.96745",H9,54.12237,-164.96745,54.12237,-164.96745,KY559154,
71.3358333,68.3388889,T. vermicularis v. subuliformis,"Sample ID new: Russia_Yamal_334<br>DNA ID/GenBank NO: 334<br>chemotype: UV+<br>lineage: lineage C<br>Phenotype: cylindrical, UV+<br>Country: Russia<br>GPS coordinates:  68.3388889°, 071.3358333°<br>Haplotype number: H1",Russia_Yamal_334,334,UV+,lineage C,"cylindrical, UV+",Russia," 68.3388889°, 071.3358333°",H1,68.3388889,71.3358333,68.3388889,71.3358333,KY559197,
72.1552778,72.1805556,"cylindrical, UV-","Sample ID new: Russia_Yamal_335<br>DNA ID/GenBank NO: 335<br>chemotype: UV-<br>lineage: lineage C<br>Phenotype: cylindrical, UV-<br>Country: Russia<br>GPS coordinates:  72.1805556°, 072.1552778°<br>Haplotype number: H1",Russia_Yamal_335,335,UV-,lineage C,"cylindrical, UV-",Russia," 72.1805556°, 072.1552778°",H1,72.1805556,72.1552778,72.1805556,72.1552778,KY559227,
57.5254972,63.6565611,T. vermicularis v. subuliformis,"Sample ID new: Komi_Ural_329<br>DNA ID/GenBank NO: 329<br>chemotype: UV+<br>lineage: lineage C<br>Phenotype: cylindrical, UV+<br>Country: Komi Republic<br>GPS coordinates: 63.6565611°, 057.5254972°<br>Haplotype number: H1",Komi_Ural_329,329,UV+,lineage C,"cylindrical, UV+",Komi Republic,"63.6565611°, 057.5254972°",H1,63.6565611,57.5254972,63.6565611,57.5254972,KY559196,
88.03685,49.409,T. vermicularis v. subuliformis,"Sample ID new: Altai_AltaiMt_339<br>DNA ID/GenBank NO: 339<br>chemotype: UV+<br>lineage: lineage C<br>Phenotype: cylindrical, UV+<br>Country: Altai Republic<br>GPS coordinates:  49.4090000°, 088.0368500°<br>Haplotype number: H1",Altai_AltaiMt_339,339,UV+,lineage C,"cylindrical, UV+",Altai Republic," 49.4090000°, 088.0368500°",H1,49.409,88.03685,49.409,88.03685,KY559115,
-160.3156389,66.3677306,"cylindrical, UV-","Sample ID new: USA_FingerMt_82<br>DNA ID/GenBank NO: 82<br>chemotype: UV-<br>lineage: lineage C<br>Phenotype: cylindrical, UV-<br>Country: U.S.A.<br>GPS coordinates: 66.3677306°, -160.3156389°<br>Haplotype number: H1",USA_FingerMt_82,82,UV-,lineage C,"cylindrical, UV-",U.S.A.,"66.3677306°, -160.3156389°",H1,66.3677306,-160.3156389,66.3677306,-160.3156389,KY559236,
14.9333333,47.0833333,"cylindrical, UV-","Sample ID new: Austria_Wolkerkogel_265<br>DNA ID/GenBank NO: 265<br>chemotype: UV-<br>lineage: lineage B<br>Phenotype: cylindrical, UV-<br>Country: Austria<br>GPS coordinates:  47.0833333°, 014.9333333°<br>Haplotype number: H8",Austria_Wolkerkogel_265,265,UV-,lineage B,"cylindrical, UV-",Austria," 47.0833333°, 014.9333333°",H8,47.0833333,14.9333333,47.0833333,14.9333333,KY559147,
14.9333333,47.0833333,T. vermicularis,"Sample ID new: Austria_Wolkerkogel_266<br>DNA ID/GenBank NO: 266<br>chemotype: UV-<br>lineage: lineage B<br>Phenotype: cylindrical, UV-<br>Country: Austria<br>GPS coordinates:  47.0833333°, 014.9333333°<br>Haplotype number: H8",Austria_Wolkerkogel_266,266,UV-,lineage B,"cylindrical, UV-",Austria," 47.0833333°, 014.9333333°",H8,47.0833333,14.9333333,47.0833333,14.9333333,KY559148,
-128.579125,54.3586944,T. vermicularis,"Sample ID new: USA_BritishColombia_272<br>DNA ID/GenBank NO: 272<br>chemotype: UV-<br>lineage: lineage C<br>Phenotype: cylindrical, UV-<br>Country: U.S.A.<br>GPS coordinates:  54.3586944°, -128.5791250°<br>Haplotype number: H1",USA_BritishColombia_272,272,UV-,lineage C,"cylindrical, UV-",U.S.A.," 54.3586944°, -128.5791250°",H1,54.3586944,-128.579125,54.3586944,-128.579125,KY559207,
-128.579125,54.3586944,T. vermicularis,"Sample ID new: USA_RadioTowerMt_277<br>DNA ID/GenBank NO: 277<br>chemotype: UV-<br>lineage: lineage C<br>Phenotype: cylindrical, UV-<br>Country: U.S.A.<br>GPS coordinates:  54.3586944°, -128.5791250°<br>Haplotype number: H1",USA_RadioTowerMt_277,277,UV-,lineage C,"cylindrical, UV-",U.S.A.," 54.3586944°, -128.5791250°",H1,54.3586944,-128.579125,54.3586944,-128.579125,KY559224,
-128.579125,54.3586944,T. vermicularis,"Sample ID new: USA_RadioTowerMt_280<br>DNA ID/GenBank NO: 280<br>chemotype: UV-<br>lineage: lineage C<br>Phenotype: cylindrical, UV-<br>Country: U.S.A.<br>GPS coordinates:  54.3586944°, -128.5791250°<br>Haplotype number: H1",USA_RadioTowerMt_280,280,UV-,lineage C,"cylindrical, UV-",U.S.A.," 54.3586944°, -128.5791250°",H1,54.3586944,-128.579125,54.3586944,-128.579125,KY559225,
-68.0512222,-16.3303056,T. vermicularis,"Sample ID new: Bolivia_LaCumbre_376<br>DNA ID/GenBank NO: 376<br>chemotype: UV-<br>lineage: lineage C<br>Phenotype: cylindrical, UV-<br>Country: Bolivia<br>GPS coordinates:  -16.3303056°, -068.0512222°<br>Haplotype number: H1",Bolivia_LaCumbre_376,376,UV-,lineage C,"cylindrical, UV-",Bolivia," -16.3303056°, -068.0512222°",H1,-16.3303056,-68.0512222,-16.3303056,-68.0512222,,
-68.0512222,-16.3303056,T. vermicularis,"Sample ID new: Bolivia_LaCumbre_377<br>DNA ID/GenBank NO: 377<br>chemotype: UV-<br>lineage: lineage C<br>Phenotype: cylindrical, UV-<br>Country: Bolivia<br>GPS coordinates:  -16.3303056°, -068.0512222°<br>Haplotype number: H1",Bolivia_LaCumbre_377,377,UV-,lineage C,"cylindrical, UV-",Bolivia," -16.3303056°, -068.0512222°",H1,-16.3303056,-68.0512222,-16.3303056,-68.0512222,,
-68.0512222,-16.3303056,T. vermicularis,"Sample ID new: Bolivia_LaCumbre_378<br>DNA ID/GenBank NO: 378<br>chemotype: UV-<br>lineage: lineage C<br>Phenotype: cylindrical, UV-<br>Country: Bolivia<br>GPS coordinates:  -16.3303056°, -068.0512222°<br>Haplotype number: H1",Bolivia_LaCumbre_378,378,UV-,lineage C,"cylindrical, UV-",Bolivia," -16.3303056°, -068.0512222°",H1,-16.3303056,-68.0512222,-16.3303056,-68.0512222,,
-68.0512222,-16.3303056,T. vermicularis,"Sample ID new: Bolivia_LaCumbre_379<br>DNA ID/GenBank NO: 379<br>chemotype: UV-<br>lineage: lineage C<br>Phenotype: cylindrical, UV-<br>Country: Bolivia<br>GPS coordinates:  -16.3303056°, -068.0512222°<br>Haplotype number: H1",Bolivia_LaCumbre_379,379,UV-,lineage C,"cylindrical, UV-",Bolivia," -16.3303056°, -068.0512222°",H1,-16.3303056,-68.0512222,-16.3303056,-68.0512222,,
-68.0512222,-16.3303056,T. vermicularis,"Sample ID new: Bolivia_LaCumbre_380<br>DNA ID/GenBank NO: 380<br>chemotype: UV-<br>lineage: lineage C<br>Phenotype: cylindrical, UV-<br>Country: Bolivia<br>GPS coordinates:  -16.3303056°, -068.0512222°<br>Haplotype number: H1",Bolivia_LaCumbre_380,380,UV-,lineage C,"cylindrical, UV-",Bolivia," -16.3303056°, -068.0512222°",H1,-16.3303056,-68.0512222,-16.3303056,-68.0512222,,
-53.833,47.62,T. vermicularis v. subuliformis,"Sample ID new: Canada_Avalon_285<br>DNA ID/GenBank NO: 285<br>chemotype: UV+<br>lineage: lineage C<br>Phenotype: cylindrical, UV+<br>Country: Canada<br>GPS coordinates:  47.6200000°, -053.8330000°<br>Haplotype number: H1",Canada_Avalon_285,285,UV+,lineage C,"cylindrical, UV+",Canada," 47.6200000°, -053.8330000°",H1,47.62,-53.833,47.62,-53.833,KY559149,
99.5672222,30.3222222,T. vermicularis,"Sample ID new: China_Sichuan_566.1<br>DNA ID/GenBank NO: 566.1<br>chemotype: UV-<br>lineage: lineage C<br>Phenotype: cylindrical, UV-<br>Country: China<br>GPS coordinates:  30.3222222°, 099.5672222°<br>Haplotype number: H1",China_Sichuan_566.1,566.1,UV-,lineage C,"cylindrical, UV-",China," 30.3222222°, 099.5672222°",H1,30.3222222,99.5672222,30.3222222,99.5672222,,
99.5672222,30.3222222,T. vermicularis,"Sample ID new: China_Sichuan_566.2<br>DNA ID/GenBank NO: 566.2<br>chemotype: UV-<br>lineage: lineage C<br>Phenotype: cylindrical, UV-<br>Country: China<br>GPS coordinates:  30.3222222°, 099.5672222°<br>Haplotype number: H1",China_Sichuan_566.2,566.2,UV-,lineage C,"cylindrical, UV-",China," 30.3222222°, 099.5672222°",H1,30.3222222,99.5672222,30.3222222,99.5672222,,
-67.6911111,-54.9575,T. vermicularis,"Sample ID new: Chile_Navarino_516.1<br>DNA ID/GenBank NO: 516.1<br>chemotype: UV-<br>lineage: lineage C<br>Phenotype: cylindrical, UV-<br>Country: Chile<br>GPS coordinates:  -54.9575000°, -067.6911111°<br>Haplotype number: H1",Chile_Navarino_516.1,516.1,UV-,lineage C,"cylindrical, UV-",Chile," -54.9575000°, -067.6911111°",H1,-54.9575,-67.6911111,-54.9575,-67.6911111,,
-67.6911111,-54.9575,T. vermicularis,"Sample ID new: Chile_Navarino_516.2<br>DNA ID/GenBank NO: 516.2<br>chemotype: UV-<br>lineage: lineage C<br>Phenotype: cylindrical, UV-<br>Country: Chile<br>GPS coordinates:  -54.9575000°, -067.6911111°<br>Haplotype number: H1",Chile_Navarino_516.2,516.2,UV-,lineage C,"cylindrical, UV-",Chile," -54.9575000°, -067.6911111°",H1,-54.9575,-67.6911111,-54.9575,-67.6911111,,
-67.6911111,-54.9575,T. vermicularis,"Sample ID new: Chile_Navarino_516.3<br>DNA ID/GenBank NO: 516.3<br>chemotype: UV-<br>lineage: lineage C<br>Phenotype: cylindrical, UV-<br>Country: Chile<br>GPS coordinates:  -54.9575000°, -067.6911111°<br>Haplotype number: H1",Chile_Navarino_516.3,516.3,UV-,lineage C,"cylindrical, UV-",Chile," -54.9575000°, -067.6911111°",H1,-54.9575,-67.6911111,-54.9575,-67.6911111,,
-72.2671583,6.4225639,T. vermicularis,"Sample ID new: Colombia_LagoPanuelo_467<br>DNA ID/GenBank NO: 467<br>chemotype: UV-<br>lineage: lineage C<br>Phenotype: cylindrical, UV-<br>Country: Colombia<br>GPS coordinates:  06.4225639°, -072.2671583°<br>Haplotype number: H1",Colombia_LagoPanuelo_467,467,UV-,lineage C,"cylindrical, UV-",Colombia," 06.4225639°, -072.2671583°",H1,6.4225639,-72.2671583,6.4225639,-72.2671583,,
-72.2671583,6.4225639,T. vermicularis,"Sample ID new: Colombia_LagoPanuelo_468<br>DNA ID/GenBank NO: 468<br>chemotype: UV-<br>lineage: lineage C<br>Phenotype: cylindrical, UV-<br>Country: Colombia<br>GPS coordinates:  06.4225639°, -072.2671583°<br>Haplotype number: H1",Colombia_LagoPanuelo_468,468,UV-,lineage C,"cylindrical, UV-",Colombia," 06.4225639°, -072.2671583°",H1,6.4225639,-72.2671583,6.4225639,-72.2671583,,
-72.2671583,6.4225639,T. vermicularis,"Sample ID new: Colombia_LagoPanuelo_469<br>DNA ID/GenBank NO: 469<br>chemotype: UV-<br>lineage: lineage C<br>Phenotype: cylindrical, UV-<br>Country: Colombia<br>GPS coordinates:  06.4225639°, -072.2671583°<br>Haplotype number: H1",Colombia_LagoPanuelo_469,469,UV-,lineage C,"cylindrical, UV-",Colombia," 06.4225639°, -072.2671583°",H1,6.4225639,-72.2671583,6.4225639,-72.2671583,,
-58.112397,-51.675389,T. vermicularis,"Sample ID new: Falklands_KentMt_558.1<br>DNA ID/GenBank NO: 558.1<br>chemotype: UV-<br>lineage: lineage C<br>Phenotype: cylindrical, UV-<br>Country: Falklands Islands<br>GPS coordinates: -51.6753890, -058.1123970<br>Haplotype number: H1",Falklands_KentMt_558.1,558.1,UV-,lineage C,"cylindrical, UV-",Falklands Islands,"-51.6753890, -058.1123970",H1,-51.675389,-58.112397,-51.675389,-58.112397,,
-58.112397,-51.675389,T. vermicularis,"Sample ID new: Falklands_KentMt_558.3<br>DNA ID/GenBank NO: 558.3<br>chemotype: UV-<br>lineage: lineage C<br>Phenotype: cylindrical, UV-<br>Country: Falklands Islands<br>GPS coordinates: -51.6753890, -058.1123970<br>Haplotype number: H1",Falklands_KentMt_558.3,558.3,UV-,lineage C,"cylindrical, UV-",Falklands Islands,"-51.6753890, -058.1123970",H1,-51.675389,-58.112397,-51.675389,-58.112397,,
56.9333333,80.6166667,T. vermicularis,"Sample ID new: Russia_FranzJosef_320<br>DNA ID/GenBank NO: 320<br>chemotype: UV+<br>lineage: lineage C<br>Phenotype: cylindrical, UV+<br>Country: Russia<br>GPS coordinates: 80.6166667°, 056.9333333°<br>Haplotype number: H1",Russia_FranzJosef_320,320,UV+,lineage C,"cylindrical, UV+",Russia,"80.6166667°, 056.9333333°",H1,80.6166667,56.9333333,80.6166667,56.9333333,KY559215,
-19.5146917,65.6847917,T. vermicularis v. subuliformis,"Sample ID new: Iceland_Skagafjardarsysla_84<br>DNA ID/GenBank NO: 84<br>chemotype: UV+<br>lineage: lineage C<br>Phenotype: cylindrical, UV+<br>Country: Iceland<br>GPS coordinates:  65.6847917°, -019.5146917°<br>Haplotype number: H1",Iceland_Skagafjardarsysla_84,84,UV+,lineage C,"cylindrical, UV+",Iceland," 65.6847917°, -019.5146917°",H1,65.6847917,-19.5146917,65.6847917,-19.5146917,KY559170,
-19.5146917,65.6847917,T. vermicularis v. subuliformis,"Sample ID new: Iceland_Skagafjardarsysla_85<br>DNA ID/GenBank NO: 85<br>chemotype: UV+<br>lineage: lineage C<br>Phenotype: cylindrical, UV+<br>Country: Iceland<br>GPS coordinates:  65.6847917°, -019.5146917°<br>Haplotype number: H1",Iceland_Skagafjardarsysla_85,85,UV+,lineage C,"cylindrical, UV+",Iceland," 65.6847917°, -019.5146917°",H1,65.6847917,-19.5146917,65.6847917,-19.5146917,KY559171,
-19.5146917,65.6847917,T. vermicularis v. subuliformis,"Sample ID new: Iceland_Skagafjardarsysla_87<br>DNA ID/GenBank NO: 87<br>chemotype: UV+<br>lineage: lineage C<br>Phenotype: cylindrical, UV+<br>Country: Iceland<br>GPS coordinates:  65.6847917°, -019.5146917°<br>Haplotype number: H1",Iceland_Skagafjardarsysla_87,87,UV+,lineage C,"cylindrical, UV+",Iceland," 65.6847917°, -019.5146917°",H1,65.6847917,-19.5146917,65.6847917,-19.5146917,KY559172,
12.7115056,63.5856194,T. vermicularis,"Sample ID new: Sweden_Jaemtlands_216.1<br>DNA ID/GenBank NO: 216.1<br>chemotype: UV-<br>lineage: lineage C<br>Phenotype: cylindrical, UV-<br>Country: Sweden<br>GPS coordinates:  63.5856194°, 012.7115056°<br>Haplotype number: H1",Sweden_Jaemtlands_216.1,216.1,UV-,lineage C,"cylindrical, UV-",Sweden," 63.5856194°, 012.7115056°",H1,63.5856194,12.7115056,63.5856194,12.7115056,KY559193,
12.7115056,63.5856194,T. vermicularis v. subuliformis,"Sample ID new: Sweden_Jaemtlands_216.2<br>DNA ID/GenBank NO: 216.2<br>chemotype: UV+<br>lineage: lineage A<br>Phenotype: cylindrical, UV+<br>Country: Sweden<br>GPS coordinates:  63.5856194°, 012.7115056°<br>Haplotype number: H9",Sweden_Jaemtlands_216.2,216.2,UV+,lineage A,"cylindrical, UV+",Sweden," 63.5856194°, 012.7115056°",H9,63.5856194,12.7115056,63.5856194,12.7115056,KY559138,
138.6256,35.8712972,T. vermicularis,"Sample ID new: Japan_Yamanashi_246.3<br>DNA ID/GenBank NO: 246.3<br>chemotype: UV-<br>lineage: lineage C<br>Phenotype: cylindrical, UV-<br>Country: Japan<br>GPS coordinates:  35.8712972°, 138.6256000°<br>Haplotype number: H1",Japan_Yamanashi_246.3,246.3,UV-,lineage C,"cylindrical, UV-",Japan," 35.8712972°, 138.6256000°",H1,35.8712972,138.6256,35.8712972,138.6256,KY559143,
48.9015,69.2645833,T. vermicularis v. subuliformis,"Sample ID new: Russia_Kolguev_315<br>DNA ID/GenBank NO: 315<br>chemotype: UV+<br>lineage: lineage A<br>Phenotype: cylindrical, UV+<br>Country: Russia<br>GPS coordinates:  69.2645833°, 048.9015000°<br>Haplotype number: H10",Russia_Kolguev_315,315,UV+,lineage A,"cylindrical, UV+",Russia," 69.2645833°, 048.9015000°",H10,69.2645833,48.9015,69.2645833,48.9015,KY559232,
48.9015,69.2645833,T. vermicularis v. subuliformis,"Sample ID new: Russia_Kolguev_316<br>DNA ID/GenBank NO: 316<br>chemotype: UV+<br>lineage: lineage A<br>Phenotype: cylindrical, UV+<br>Country: Russia<br>GPS coordinates:  69.2645833°, 048.9015000°<br>Haplotype number: H10",Russia_Kolguev_316,316,UV+,lineage A,"cylindrical, UV+",Russia," 69.2645833°, 048.9015000°",H10,69.2645833,48.9015,69.2645833,48.9015,KY559233,
86.7486111,27.9541667,T. vermicularis v. subuliformis,"Sample ID new: Nepal_Khumbu_344<br>DNA ID/GenBank NO: 344<br>chemotype: UV+<br>lineage: lineage C<br>Phenotype: cylindrical, UV+<br>Country: Nepal<br>GPS coordinates:  27.9541667°, 086.7486111°<br>Haplotype number: H3",Nepal_Khumbu_344,344,UV+,lineage C,"cylindrical, UV+",Nepal," 27.9541667°, 086.7486111°",H3,27.9541667,86.7486111,27.9541667,86.7486111,KY559116,
86.7486111,27.9541667,T. vermicularis,"Sample ID new: Nepal_Khumbu_345<br>DNA ID/GenBank NO: 345<br>chemotype: UV-<br>lineage: lineage C<br>Phenotype: cylindrical, UV-<br>Country: Nepal<br>GPS coordinates:  27.9541667°, 086.7486111°<br>Haplotype number: H1",Nepal_Khumbu_345,345,UV-,lineage C,"cylindrical, UV-",Nepal," 27.9541667°, 086.7486111°",H1,27.9541667,86.7486111,27.9541667,86.7486111,KY559117,
8.3559417,61.5691972,T. vermicularis v. subuliformis,"Sample ID new: Norway_Juvasshytta_06<br>DNA ID/GenBank NO: 6<br>chemotype: UV+<br>lineage: lineage C<br>Phenotype: cylindrical, UV+<br>Country: Norway<br>GPS coordinates:  61.5691972°, 008.3559417°<br>Haplotype number: H1",Norway_Juvasshytta_06,6,UV+,lineage C,"cylindrical, UV+",Norway," 61.5691972°, 008.3559417°",H1,61.5691972,8.3559417,61.5691972,8.3559417,KY559126,
172.8333333,-42.4833333,T. vermicularis,"Sample ID new: NZ_Cantebury_564.1<br>DNA ID/GenBank NO: 564.1<br>chemotype: UV-<br>lineage: lineage C<br>Phenotype: cylindrical, UV-<br>Country: New Zeeland<br>GPS coordinates:  -42.4833333°, 172.8333333°<br>Haplotype number: H1",NZ_Cantebury_564.1,564.1,UV-,lineage C,"cylindrical, UV-",New Zeeland," -42.4833333°, 172.8333333°",H1,-42.4833333,172.8333333,-42.4833333,172.8333333,,
16.4668083,56.3003306,T. vermicularis v. subuliformis,"Sample ID new: Sweden_Öland_07<br>DNA ID/GenBank NO: 7<br>chemotype: UV+<br>lineage: lineage C<br>Phenotype: cylindrical, UV+<br>Country: Sweden<br>GPS coordinates:  56.3003306°, 016.4668083°<br>Haplotype number: H1",Sweden_Öland_07,7,UV+,lineage C,"cylindrical, UV+",Sweden," 56.3003306°, 016.4668083°",H1,56.3003306,16.4668083,56.3003306,16.4668083,KY559183,
16.4668083,56.3003306,T. vermicularis v. subuliformis,"Sample ID new: Sweden_Öland_08<br>DNA ID/GenBank NO: 8<br>chemotype: UV+<br>lineage: lineage C<br>Phenotype: cylindrical, UV+<br>Country: Sweden<br>GPS coordinates:  56.3003306°, 016.4668083°<br>Haplotype number: H1",Sweden_Öland_08,8,UV+,lineage C,"cylindrical, UV+",Sweden," 56.3003306°, 016.4668083°",H1,56.3003306,16.4668083,56.3003306,16.4668083,KY559184,
16.4668083,56.3003306,T. vermicularis v. subuliformis,"Sample ID new: Sweden_Öland_09<br>DNA ID/GenBank NO: 9<br>chemotype: UV+<br>lineage: lineage C<br>Phenotype: cylindrical, UV+<br>Country: Sweden<br>GPS coordinates:  56.3003306°, 016.4668083°<br>Haplotype number: H1",Sweden_Öland_09,9,UV+,lineage C,"cylindrical, UV+",Sweden," 56.3003306°, 016.4668083°",H1,56.3003306,16.4668083,56.3003306,16.4668083,KY559185,
16.4668083,56.3003306,T. vermicularis v. subuliformis,"Sample ID new: Sweden_Öland_10<br>DNA ID/GenBank NO: 10<br>chemotype: UV+<br>lineage: lineage C<br>Phenotype: cylindrical, UV+<br>Country: Sweden<br>GPS coordinates:  56.3003306°, 016.4668083°<br>Haplotype number: H1",Sweden_Öland_10,10,UV+,lineage C,"cylindrical, UV+",Sweden," 56.3003306°, 016.4668083°",H1,56.3003306,16.4668083,56.3003306,16.4668083,KY559186,
16.4668083,56.3003306,T. vermicularis v. subuliformis,"Sample ID new: Sweden_Öland_16<br>DNA ID/GenBank NO: 16<br>chemotype: UV+<br>lineage: lineage C<br>Phenotype: cylindrical, UV+<br>Country: Sweden<br>GPS coordinates:  56.3003306°, 016.4668083°<br>Haplotype number: H1",Sweden_Öland_16,16,UV+,lineage C,"cylindrical, UV+",Sweden," 56.3003306°, 016.4668083°",H1,56.3003306,16.4668083,56.3003306,16.4668083,KY559187,
-77.6121972,-9.0088083,"cylindrical, unknown chemistry","Sample ID new: Peru_Laguna69_369<br>DNA ID/GenBank NO: 369<br>chemotype: NA<br>lineage: lineage C<br>Phenotype: cylindrical, unknown chemistry<br>Country: Peru<br>GPS coordinates: -09.0088083°, -077.6121972°<br>Haplotype number: H1",Peru_Laguna69_369,369,NA,lineage C,"cylindrical, unknown chemistry",Peru,"-09.0088083°, -077.6121972°",H1,-9.0088083,-77.6121972,-9.0088083,-77.6121972,,
-77.6121972,-9.0088083,"cylindrical, unknown chemistry","Sample ID new: Peru_Laguna69_370<br>DNA ID/GenBank NO: 370<br>chemotype: NA<br>lineage: lineage C<br>Phenotype: cylindrical, unknown chemistry<br>Country: Peru<br>GPS coordinates: -09.0088083°, -077.6121972°<br>Haplotype number: H1",Peru_Laguna69_370,370,NA,lineage C,"cylindrical, unknown chemistry",Peru,"-09.0088083°, -077.6121972°",H1,-9.0088083,-77.6121972,-9.0088083,-77.6121972,,
-77.6121972,-9.0088083,"cylindrical, unknown chemistry","Sample ID new: Peru_Laguna69_372<br>DNA ID/GenBank NO: 372<br>chemotype: NA<br>lineage: lineage C<br>Phenotype: cylindrical, unknown chemistry<br>Country: Peru<br>GPS coordinates: -09.0088083°, -077.6121972°<br>Haplotype number: H1",Peru_Laguna69_372,372,NA,lineage C,"cylindrical, unknown chemistry",Peru,"-09.0088083°, -077.6121972°",H1,-9.0088083,-77.6121972,-9.0088083,-77.6121972,,
-77.6121972,-9.0088083,T. vermicularis v. vermicularis,"Sample ID new: Peru_Laguna69_373<br>DNA ID/GenBank NO: 373<br>chemotype: UV-<br>lineage: lineage C<br>Phenotype: cylindrical, UV-<br>Country: Peru<br>GPS coordinates: -09.0088083°, -077.6121972°<br>Haplotype number: H1",Peru_Laguna69_373,373,UV-,lineage C,"cylindrical, UV-",Peru,"-09.0088083°, -077.6121972°",H1,-9.0088083,-77.6121972,-9.0088083,-77.6121972,,
20.0633333,49.1866667,T. vermicularis v. subuliformis,"Sample ID new: Poland_TatraMt_301<br>DNA ID/GenBank NO: 301<br>chemotype: UV+<br>lineage: lineage C<br>Phenotype: cylindrical, UV+<br>Country: Poland<br>GPS coordinates: 49.1866667°, 020.0633333°<br>Haplotype number: H1",Poland_TatraMt_301,301,UV+,lineage C,"cylindrical, UV+",Poland,"49.1866667°, 020.0633333°",H1,49.1866667,20.0633333,49.1866667,20.0633333,KY559157,
25.4955556,45.3594806,T. vermicularis v. subuliformis,"Sample ID new: Romania_BucegiMt_02<br>DNA ID/GenBank NO: 2<br>chemotype: UV+<br>lineage: lineage C<br>Phenotype: cylindrical, UV+<br>Country: Romania<br>GPS coordinates:  45.3594806°, 025.4955556°<br>Haplotype number: H1",Romania_BucegiMt_02,2,UV+,lineage C,"cylindrical, UV+",Romania," 45.3594806°, 025.4955556°",H1,45.3594806,25.4955556,45.3594806,25.4955556,KY559175,
25.4955556,45.3594806,T. vermicularis v. subuliformis,"Sample ID new: Romania_BucegiMt_45<br>DNA ID/GenBank NO: 45<br>chemotype: UV+<br>lineage: lineage C<br>Phenotype: cylindrical, UV+<br>Country: Romania<br>GPS coordinates:  45.3594806°, 025.4955556°<br>Haplotype number: H1",Romania_BucegiMt_45,45,UV+,lineage C,"cylindrical, UV+",Romania," 45.3594806°, 025.4955556°",H1,45.3594806,25.4955556,45.3594806,25.4955556,KY559177,
25.4955556,45.3594806,T. vermicularis v. subuliformis,"Sample ID new: Romania_BucegiMt_53<br>DNA ID/GenBank NO: 53<br>chemotype: UV+<br>lineage: lineage C<br>Phenotype: cylindrical, UV+<br>Country: Romania<br>GPS coordinates:  45.3594806°, 025.4955556°<br>Haplotype number: H1",Romania_BucegiMt_53,53,UV+,lineage C,"cylindrical, UV+",Romania," 45.3594806°, 025.4955556°",H1,45.3594806,25.4955556,45.3594806,25.4955556,KY559178,
153.9695833,61.1965833,T. vermicularis,"Sample ID new: Russia_Dzuletta_310<br>DNA ID/GenBank NO: 310<br>chemotype: UV-<br>lineage: lineage C<br>Phenotype: cylindrical, UV-<br>Country: Russia<br>GPS coordinates:  61.1965833°, 153.9695833°<br>Haplotype number: H1",Russia_Dzuletta_310,310,UV-,lineage C,"cylindrical, UV-",Russia," 61.1965833°, 153.9695833°",H1,61.1965833,153.9695833,61.1965833,153.9695833,KY559230,
15.6291639,78.2147111,T. vermicularis v. subuliformis,"Sample ID new: Norway_Svalbard_01<br>DNA ID/GenBank NO: 1<br>chemotype: UV+<br>lineage: lineage C<br>Phenotype: cylindrical, UV+<br>Country: Norway<br>GPS coordinates:  78.2147111°, 015.6291639°<br>Haplotype number: H1",Norway_Svalbard_01,1,UV+,lineage C,"cylindrical, UV+",Norway," 78.2147111°, 015.6291639°",H1,78.2147111,15.6291639,78.2147111,15.6291639,KY559124,
15.6291639,78.2147111,T. vermicularis v. subuliformis,"Sample ID new: Norway_Svalbard_54<br>DNA ID/GenBank NO: 54<br>chemotype: UV+<br>lineage: lineage C<br>Phenotype: cylindrical, UV+<br>Country: Norway<br>GPS coordinates:  78.2147111°, 015.6291639°<br>Haplotype number: H1",Norway_Svalbard_54,54,UV+,lineage C,"cylindrical, UV+",Norway," 78.2147111°, 015.6291639°",H1,78.2147111,15.6291639,78.2147111,15.6291639,KY559166,
15.6291639,78.2147111,T. vermicularis v. subuliformis,"Sample ID new: Norway_Svalbard_56<br>DNA ID/GenBank NO: 65<br>chemotype: UV+<br>lineage: lineage C<br>Phenotype: cylindrical, UV+<br>Country: Norway<br>GPS coordinates:  78.2147111°, 015.6291639°<br>Haplotype number: H1",Norway_Svalbard_56,65,UV+,lineage C,"cylindrical, UV+",Norway," 78.2147111°, 015.6291639°",H1,78.2147111,15.6291639,78.2147111,15.6291639,,
15.6291639,78.2147111,T. vermicularis v. subuliformis,"Sample ID new: Norway_Svalbard_61<br>DNA ID/GenBank NO: 61<br>chemotype: UV+<br>lineage: lineage C<br>Phenotype: cylindrical, UV+<br>Country: Norway<br>GPS coordinates:  78.2147111°, 015.6291639°<br>Haplotype number: H1",Norway_Svalbard_61,61,UV+,lineage C,"cylindrical, UV+",Norway," 78.2147111°, 015.6291639°",H1,78.2147111,15.6291639,78.2147111,15.6291639,KY559168,
15.6291639,78.2147111,T. vermicularis v. subuliformis,"Sample ID new: Norway_Svalbard_62.3<br>DNA ID/GenBank NO: 62.3<br>chemotype: UV+<br>lineage: lineage C<br>Phenotype: cylindrical, UV+<br>Country: Norway<br>GPS coordinates:  78.2147111°, 015.6291639°<br>Haplotype number: H1",Norway_Svalbard_62.3,62.3,UV+,lineage C,"cylindrical, UV+",Norway," 78.2147111°, 015.6291639°",H1,78.2147111,15.6291639,78.2147111,15.6291639,KY559219,
7.29938,46.0856,T. vermicularis,"Sample ID new: Switzerland_Valais_111<br>DNA ID/GenBank NO: 111<br>chemotype: UV-<br>lineage: lineage B<br>Phenotype: cylindrical, UV-<br>Country: Switzerland<br>GPS coordinates:  46.0856000°, 007.2993800°<br>Haplotype number: H8",Switzerland_Valais_111,111,UV-,lineage B,"cylindrical, UV-",Switzerland," 46.0856000°, 007.2993800°",H8,46.0856,7.29938,46.0856,7.29938,KY559130,
7.29938,46.0856,T. vermicularis v. subuliformis,"Sample ID new: Switzerland_Valais_113<br>DNA ID/GenBank NO: 113<br>chemotype: UV+<br>lineage: lineage C<br>Phenotype: cylindrical, UV+<br>Country: Switzerland<br>GPS coordinates:  46.0856000°, 007.2993800°<br>Haplotype number: H1",Switzerland_Valais_113,113,UV+,lineage C,"cylindrical, UV+",Switzerland," 46.0856000°, 007.2993800°",H1,46.0856,7.29938,46.0856,7.29938,KY559107,
7.29938,46.0856,T. vermicularis,"Sample ID new: Switzerland_Valais_115<br>DNA ID/GenBank NO: 115<br>chemotype: UV-<br>lineage: lineage B<br>Phenotype: cylindrical, UV-<br>Country: Switzerland<br>GPS coordinates:  46.0856000°, 007.2993800°<br>Haplotype number: H8",Switzerland_Valais_115,115,UV-,lineage B,"cylindrical, UV-",Switzerland," 46.0856000°, 007.2993800°",H8,46.0856,7.29938,46.0856,7.29938,KY559131,
140.7391667,51.4201333,T. vermicularis,"Sample ID new: Russia_ArbatMt_342<br>DNA ID/GenBank NO: 342<br>chemotype: UV-<br>lineage: lineage C<br>Phenotype: cylindrical, UV-<br>Country: Russia<br>GPS coordinates:  51.4201333°, 140.7391667°<br>Haplotype number: H1",Russia_ArbatMt_342,342,UV-,lineage C,"cylindrical, UV-",Russia," 51.4201333°, 140.7391667°",H1,51.4201333,140.7391667,51.4201333,140.7391667,KY559198,
88.6764028,49.9936583,T. vermicularis v. subuliformis,"Sample ID new: Russia_AltaiMt_338<br>DNA ID/GenBank NO: 338<br>chemotype: UV+<br>lineage: lineage C<br>Phenotype: cylindrical, UV+<br>Country: Russia<br>GPS coordinates:  49.9936583°, 088.6764028°<br>Haplotype number: H4",Russia_AltaiMt_338,338,UV+,lineage C,"cylindrical, UV+",Russia," 49.9936583°, 088.6764028°",H4,49.9936583,88.6764028,49.9936583,88.6764028,KY559114,
-149.8311472,68.4470083,T. vermicularis,"Sample ID new: USA_Wiseman-Antigu_83.1<br>DNA ID/GenBank NO: 83.1<br>chemotype: UV-<br>lineage: lineage C<br>Phenotype: cylindrical, UV-<br>Country: U.S.A.<br>GPS coordinates: 68.4470083°, -149.8311472°<br>Haplotype number: H1",USA_Wiseman-Antigu_83.1,83.1,UV-,lineage C,"cylindrical, UV-",U.S.A.,"68.4470083°, -149.8311472°",H1,68.4470083,-149.8311472,68.4470083,-149.8311472,KY559204,
-149.8311472,68.4470083,T. vermicularis v. subuliformis,"Sample ID new: USA_Wiseman-Antigu_83.2<br>DNA ID/GenBank NO: 83.2<br>chemotype: UV+<br>lineage: lineage C<br>Phenotype: cylindrical, UV+<br>Country: U.S.A.<br>GPS coordinates: 68.4470083°, -149.8311472°<br>Haplotype number: H1",USA_Wiseman-Antigu_83.2,83.2,UV+,lineage C,"cylindrical, UV+",U.S.A.,"68.4470083°, -149.8311472°",H1,68.4470083,-149.8311472,68.4470083,-149.8311472,KY559238,
148.8,-35.4666667,T. vermicularis,"Sample ID new: Australia_AggieMt_554.3<br>DNA ID/GenBank NO: 554.3<br>chemotype: UV-<br>lineage: lineage C<br>Phenotype: cylindrical, UV-<br>Country: Australia<br>GPS coordinates:  -35.4666667°, 148.8000000°<br>Haplotype number: H1",Australia_AggieMt_554.3,554.3,UV-,lineage C,"cylindrical, UV-",Australia," -35.4666667°, 148.8000000°",H1,-35.4666667,148.8,-35.4666667,148.8,,
-68.0543056,-16.3209722,T. vermicularis,"Sample ID new: Bolivia_ApachetaChucura_381<br>DNA ID/GenBank NO: 381<br>chemotype: UV-<br>lineage: lineage C<br>Phenotype: cylindrical, UV-<br>Country: Bolivia<br>GPS coordinates:  -16.3209722°, -068.0543056°<br>Haplotype number: H1",Bolivia_ApachetaChucura_381,381,UV-,lineage C,"cylindrical, UV-",Bolivia," -16.3209722°, -068.0543056°",H1,-16.3209722,-68.0543056,-16.3209722,-68.0543056,,
-68.0543056,-16.3209722,T. vermicularis,"Sample ID new: Bolivia_ApachetaChucura_382<br>DNA ID/GenBank NO: 382<br>chemotype: UV-<br>lineage: lineage C<br>Phenotype: cylindrical, UV-<br>Country: Bolivia<br>GPS coordinates:  -16.3209722°, -068.0543056°<br>Haplotype number: H1",Bolivia_ApachetaChucura_382,382,UV-,lineage C,"cylindrical, UV-",Bolivia," -16.3209722°, -068.0543056°",H1,-16.3209722,-68.0543056,-16.3209722,-68.0543056,,
-68.0543056,-16.3209722,T. vermicularis,"Sample ID new: Bolivia_ApachetaChucura_383<br>DNA ID/GenBank NO: 383<br>chemotype: UV-<br>lineage: lineage C<br>Phenotype: cylindrical, UV-<br>Country: Bolivia<br>GPS coordinates:  -16.3209722°, -068.0543056°<br>Haplotype number: H1",Bolivia_ApachetaChucura_383,383,UV-,lineage C,"cylindrical, UV-",Bolivia," -16.3209722°, -068.0543056°",H1,-16.3209722,-68.0543056,-16.3209722,-68.0543056,,
-67.6436111,-54.9586111,T. vermicularis,"Sample ID new: Chile_Navarino_556.3<br>DNA ID/GenBank NO: 556.3<br>chemotype: UV-<br>lineage: lineage C<br>Phenotype: cylindrical, UV-<br>Country: Chile<br>GPS coordinates:  -54.9586111°, -067.6436111°<br>Haplotype number: H1",Chile_Navarino_556.3,556.3,UV-,lineage C,"cylindrical, UV-",Chile," -54.9586111°, -067.6436111°",H1,-54.9586111,-67.6436111,-54.9586111,-67.6436111,,
-72.2841361,6.4899917,T. vermicularis,"Sample ID new: Colombia_Boyara_473<br>DNA ID/GenBank NO: 473<br>chemotype: UV-<br>lineage: lineage C<br>Phenotype: cylindrical, UV-<br>Country: Colombia<br>GPS coordinates: 06.4899917°, -072.2841361°<br>Haplotype number: H1",Colombia_Boyara_473,473,UV-,lineage C,"cylindrical, UV-",Colombia,"06.4899917°, -072.2841361°",H1,6.4899917,-72.2841361,6.4899917,-72.2841361,,
-72.2841361,6.4899917,T. vermicularis,"Sample ID new: Colombia_Boyara_474<br>DNA ID/GenBank NO: 474<br>chemotype: UV-<br>lineage: lineage C<br>Phenotype: cylindrical, UV-<br>Country: Colombia<br>GPS coordinates: 06.4899917°, -072.2841361°<br>Haplotype number: H1",Colombia_Boyara_474,474,UV-,lineage C,"cylindrical, UV-",Colombia,"06.4899917°, -072.2841361°",H1,6.4899917,-72.2841361,6.4899917,-72.2841361,,
-72.2841361,6.4899917,T. vermicularis,"Sample ID new: Colombia_Boyara_476<br>DNA ID/GenBank NO: 476<br>chemotype: UV-<br>lineage: lineage C<br>Phenotype: cylindrical, UV-<br>Country: Colombia<br>GPS coordinates: 06.4899917°, -072.2841361°<br>Haplotype number: H1",Colombia_Boyara_476,476,UV-,lineage C,"cylindrical, UV-",Colombia,"06.4899917°, -072.2841361°",H1,6.4899917,-72.2841361,6.4899917,-72.2841361,,
-59.601849,-51.619028,T. vermicularis,"Sample ID new: Falklands_MariaMt_559.1<br>DNA ID/GenBank NO: 559.1<br>chemotype: UV-<br>lineage: lineage C<br>Phenotype: cylindrical, UV-<br>Country: Falklands Islands<br>GPS coordinates:  -51.6190280°, -059.6018490°<br>Haplotype number: H1",Falklands_MariaMt_559.1,559.1,UV-,lineage C,"cylindrical, UV-",Falklands Islands," -51.6190280°, -059.6018490°",H1,-51.619028,-59.601849,-51.619028,-59.601849,,
-59.601849,-51.619028,T. vermicularis,"Sample ID new: Falklands_MariaMt_559.2<br>DNA ID/GenBank NO: 559.2<br>chemotype: UV-<br>lineage: lineage C<br>Phenotype: cylindrical, UV-<br>Country: Falklands Islands<br>GPS coordinates:  -51.6190280°, -059.6018490°<br>Haplotype number: H1",Falklands_MariaMt_559.2,559.2,UV-,lineage C,"cylindrical, UV-",Falklands Islands," -51.6190280°, -059.6018490°",H1,-51.619028,-59.601849,-51.619028,-59.601849,,
-59.601849,-51.619028,T. vermicularis,"Sample ID new: Falklands_MariaMt_559.3<br>DNA ID/GenBank NO: 559.3<br>chemotype: UV-<br>lineage: lineage C<br>Phenotype: cylindrical, UV-<br>Country: Falklands Islands<br>GPS coordinates:  -51.6190280°, -059.6018490°<br>Haplotype number: H1",Falklands_MariaMt_559.3,559.3,UV-,lineage C,"cylindrical, UV-",Falklands Islands," -51.6190280°, -059.6018490°",H1,-51.619028,-59.601849,-51.619028,-59.601849,,
58.9166667,80.8666667,T. vermicularis v. subuliformis,"Sample ID new: Russia_FranzJosef_321<br>DNA ID/GenBank NO: 321<br>chemotype: UV+<br>lineage: lineage C<br>Phenotype: cylindrical, UV+<br>Country: Russia<br>GPS coordinates: 80.8666667°, 058.9166667°<br>Haplotype number: H1",Russia_FranzJosef_321,321,UV+,lineage C,"cylindrical, UV+",Russia,"80.8666667°, 058.9166667°",H1,80.8666667,58.9166667,80.8666667,58.9166667,KY559216,
12.3500556,63.1331611,T. vermicularis v. subuliformis,"Sample ID new: Sweden_Jaemtlands_214.1<br>DNA ID/GenBank NO: 214.1<br>chemotype: UV+<br>lineage: lineage C<br>Phenotype: cylindrical, UV+<br>Country: Sweden<br>GPS coordinates:  63.1331611°, 012.3500556°<br>Haplotype number: H1",Sweden_Jaemtlands_214.1,214.1,UV+,lineage C,"cylindrical, UV+",Sweden," 63.1331611°, 012.3500556°",H1,63.1331611,12.3500556,63.1331611,12.3500556,KY559137,
12.3500556,63.1331611,T. vermicularis,"Sample ID new: Sweden_Jaemtlands_214.2<br>DNA ID/GenBank NO: 214.2<br>chemotype: UV-<br>lineage: lineage C<br>Phenotype: cylindrical, UV-<br>Country: Sweden<br>GPS coordinates:  63.1331611°, 012.3500556°<br>Haplotype number: H1",Sweden_Jaemtlands_214.2,214.2,UV-,lineage C,"cylindrical, UV-",Sweden," 63.1331611°, 012.3500556°",H1,63.1331611,12.3500556,63.1331611,12.3500556,KY559205,
137.6183333,36.5758333,T. vermicularis,"Sample ID new: Japan_282.B<br>DNA ID/GenBank NO: 282.B<br>chemotype: UV-<br>lineage: lineage C<br>Phenotype: cylindrical, UV-<br>Country: Japan<br>GPS coordinates:  36.5758333°, 137.6183333°<br>Haplotype number: H1",Japan_282.B,282.B,UV-,lineage C,"cylindrical, UV-",Japan," 36.5758333°, 137.6183333°",H1,36.5758333,137.6183333,36.5758333,137.6183333,,
82.7825,29.1713889,T. vermicularis v. subuliformis,"Sample ID new: Nepal_Dolpo_349<br>DNA ID/GenBank NO: 349<br>chemotype: UV+<br>lineage: lineage C<br>Phenotype: cylindrical, UV+<br>Country: Nepal<br>GPS coordinates:  29.1713889°, 082.7825000°<br>Haplotype number: H1",Nepal_Dolpo_349,349,UV+,lineage C,"cylindrical, UV+",Nepal," 29.1713889°, 082.7825000°",H1,29.1713889,82.7825,29.1713889,82.7825,KY559234,
82.7825,29.1713889,T. vermicularis v. subuliformis,"Sample ID new: Nepal_Dolpo_352<br>DNA ID/GenBank NO: 352<br>chemotype: UV+<br>lineage: lineage C<br>Phenotype: cylindrical, UV+<br>Country: Nepal<br>GPS coordinates:  29.1713889°, 082.7825000°<br>Haplotype number: H1",Nepal_Dolpo_352,352,UV+,lineage C,"cylindrical, UV+",Nepal," 29.1713889°, 082.7825000°",H1,29.1713889,82.7825,29.1713889,82.7825,KY559119,
10.2783611,62.5643806,T. vermicularis v. subuliformis,"Sample ID new: Norway_Hedmark_218<br>DNA ID/GenBank NO: 218<br>chemotype: UV+<br>lineage: lineage C<br>Phenotype: cylindrical, UV+<br>Country: Norway<br>GPS coordinates:  62.5643806°, 010.2783611°<br>Haplotype number: H1",Norway_Hedmark_218,218,UV+,lineage C,"cylindrical, UV+",Norway," 62.5643806°, 010.2783611°",H1,62.5643806,10.2783611,62.5643806,10.2783611,KY559139,
171.7166667,-43.3,T. vermicularis,"Sample ID new: NZ_Cantebury_565.1<br>DNA ID/GenBank NO: 565<br>chemotype: UV-<br>lineage: lineage C<br>Phenotype: cylindrical, UV-<br>Country: New Zeeland<br>GPS coordinates:  -43.3000000°, 171.7166667°<br>Haplotype number: H1",NZ_Cantebury_565.1,565,UV-,lineage C,"cylindrical, UV-",New Zeeland," -43.3000000°, 171.7166667°",H1,-43.3,171.7166667,-43.3,171.7166667,,
16.5934472,56.6636972,T. vermicularis v. subuliformis,"Sample ID new: Sweden_Öland_03<br>DNA ID/GenBank NO: 3<br>chemotype: UV+<br>lineage: lineage C<br>Phenotype: cylindrical, UV+<br>Country: Sweden<br>GPS coordinates:  56.6636972°, 016.5934472°<br>Haplotype number: H1",Sweden_Öland_03,3,UV+,lineage C,"cylindrical, UV+",Sweden," 56.6636972°, 016.5934472°",H1,56.6636972,16.5934472,56.6636972,16.5934472,KY559181,
16.5934472,56.6636972,T. vermicularis v. subuliformis,"Sample ID new: Sweden_Öland_17<br>DNA ID/GenBank NO: 17<br>chemotype: UV+<br>lineage: lineage C<br>Phenotype: cylindrical, UV+<br>Country: Sweden<br>GPS coordinates:  56.6636972°, 016.5934472°<br>Haplotype number: H1",Sweden_Öland_17,17,UV+,lineage C,"cylindrical, UV+",Sweden," 56.6636972°, 016.5934472°",H1,56.6636972,16.5934472,56.6636972,16.5934472,KY559188,
16.5934472,56.6636972,T. vermicularis v. subuliformis,"Sample ID new: Sweden_Öland_18<br>DNA ID/GenBank NO: 18<br>chemotype: UV+<br>lineage: lineage C<br>Phenotype: cylindrical, UV+<br>Country: Sweden<br>GPS coordinates:  56.6636972°, 016.5934472°<br>Haplotype number: H1",Sweden_Öland_18,18,UV+,lineage C,"cylindrical, UV+",Sweden," 56.6636972°, 016.5934472°",H1,56.6636972,16.5934472,56.6636972,16.5934472,KY559189,
16.5934472,56.6636972,T. vermicularis v. subuliformis,"Sample ID new: Sweden_Öland_19<br>DNA ID/GenBank NO: 19<br>chemotype: UV+<br>lineage: lineage C<br>Phenotype: cylindrical, UV+<br>Country: Sweden<br>GPS coordinates:  56.6636972°, 016.5934472°<br>Haplotype number: H1",Sweden_Öland_19,19,UV+,lineage C,"cylindrical, UV+",Sweden," 56.6636972°, 016.5934472°",H1,56.6636972,16.5934472,56.6636972,16.5934472,KY559190,
-77.6127611,-9.0117333,"cylindrical, unknown chemistry","Sample ID new: Peru_Laguna69_371<br>DNA ID/GenBank NO: 371<br>chemotype: NA<br>lineage: lineage C<br>Phenotype: cylindrical, unknown chemistry<br>Country: Peru<br>GPS coordinates:  -09.0117333°, -077.6127611°<br>Haplotype number: H1",Peru_Laguna69_371,371,NA,lineage C,"cylindrical, unknown chemistry",Peru," -09.0117333°, -077.6127611°",H1,-9.0117333,-77.6127611,-9.0117333,-77.6127611,,
-77.6127611,-9.0117333,T. vermicularis v. vermicularis,"Sample ID new: Peru_Laguna69_464<br>DNA ID/GenBank NO: 464<br>chemotype: UV-<br>lineage: lineage C<br>Phenotype: cylindrical, UV-<br>Country: Peru<br>GPS coordinates:  -09.0117333°, -077.6127611°<br>Haplotype number: H1",Peru_Laguna69_464,464,UV-,lineage C,"cylindrical, UV-",Peru," -09.0117333°, -077.6127611°",H1,-9.0117333,-77.6127611,-9.0117333,-77.6127611,,
-77.6127611,-9.0117333,T. vermicularis v. vermicularis,"Sample ID new: Peru_Laguna69_465<br>DNA ID/GenBank NO: 465<br>chemotype: UV-<br>lineage: lineage C<br>Phenotype: cylindrical, UV-<br>Country: Peru<br>GPS coordinates:  -09.0117333°, -077.6127611°<br>Haplotype number: H1",Peru_Laguna69_465,465,UV-,lineage C,"cylindrical, UV-",Peru," -09.0117333°, -077.6127611°",H1,-9.0117333,-77.6127611,-9.0117333,-77.6127611,,
-77.6127611,-9.0117333,T. vermicularis v. vermicularis,"Sample ID new: Peru_Laguna69_466<br>DNA ID/GenBank NO: 466<br>chemotype: UV-<br>lineage: lineage C<br>Phenotype: cylindrical, UV-<br>Country: Peru<br>GPS coordinates:  -09.0117333°, -077.6127611°<br>Haplotype number: H1",Peru_Laguna69_466,466,UV-,lineage C,"cylindrical, UV-",Peru," -09.0117333°, -077.6127611°",H1,-9.0117333,-77.6127611,-9.0117333,-77.6127611,,
132.7876111,43.1050556,T. vermicularis,"Sample ID new: Russia_ LitovkaMt_311<br>DNA ID/GenBank NO: 311<br>chemotype: UV-<br>lineage: lineage C<br>Phenotype: cylindrical, UV-<br>Country: Russia<br>GPS coordinates:  43.1050556°, 132.7876111°<br>Haplotype number: H1",Russia_ LitovkaMt_311,311,UV-,lineage C,"cylindrical, UV-",Russia," 43.1050556°, 132.7876111°",H1,43.1050556,132.7876111,43.1050556,132.7876111,KY559229,
18.5563889,80.0438889,T. vermicularis v. subuliformis,"Sample ID new: Norway_Svalbard_319<br>DNA ID/GenBank NO: 319<br>chemotype: UV+<br>lineage: lineage C<br>Phenotype: cylindrical, UV+<br>Country: Norway<br>GPS coordinates:  80.0438889°, 018.5563889°<br>Haplotype number: H1",Norway_Svalbard_319,319,UV+,lineage C,"cylindrical, UV+",Norway," 80.0438889°, 018.5563889°",H1,80.0438889,18.5563889,80.0438889,18.5563889,KY559214,
148.7666667,-35.4666667,T. vermicularis,"Sample ID new: Australia_AggieMt_567.1<br>DNA ID/GenBank NO: 567.1<br>chemotype: UV-<br>lineage: lineage C<br>Phenotype: cylindrical, UV-<br>Country: Australia<br>GPS coordinates:  -35.4666667°, 148.7666667°<br>Haplotype number: H2",Australia_AggieMt_567.1,567.1,UV-,lineage C,"cylindrical, UV-",Australia," -35.4666667°, 148.7666667°",H2,-35.4666667,148.7666667,-35.4666667,148.7666667,,
148.7666667,-35.4666667,"flat, UV-","Sample ID new: Australia_AggieMt_567.2<br>DNA ID/GenBank NO: 567.2<br>chemotype: UV-<br>lineage: lineage C<br>Phenotype: flat, UV-<br>Country: Australia<br>GPS coordinates:  -35.4666667°, 148.7666667°<br>Haplotype number: H2",Australia_AggieMt_567.2,567.2,UV-,lineage C,"flat, UV-",Australia," -35.4666667°, 148.7666667°",H2,-35.4666667,148.7666667,-35.4666667,148.7666667,,
14.57,47.0683333,T. vermicularis,"Sample ID new: Austria_SeetakerAlpen_427.1<br>DNA ID/GenBank NO: 427.1<br>chemotype: UV-<br>lineage: lineage B<br>Phenotype: cylindrical, UV-<br>Country: Austria<br>GPS coordinates:  47.0683333°, 014.5700000°<br>Haplotype number: H8",Austria_SeetakerAlpen_427.1,427.1,UV-,lineage B,"cylindrical, UV-",Austria," 47.0683333°, 014.5700000°",H8,47.0683333,14.57,47.0683333,14.57,,
14.57,47.0683333,T. vermicularis,"Sample ID new: Austria_SeetakerAlpen_427.2<br>DNA ID/GenBank NO: 427.2<br>chemotype: UV-<br>lineage: lineage B<br>Phenotype: cylindrical, UV-<br>Country: Austria<br>GPS coordinates:  47.0683333°, 014.5700000°<br>Haplotype number: H8",Austria_SeetakerAlpen_427.2,427.2,UV-,lineage B,"cylindrical, UV-",Austria," 47.0683333°, 014.5700000°",H8,47.0683333,14.57,47.0683333,14.57,,
14.57,47.0683333,T. vermicularis,"Sample ID new: Austria_SeetakerAlpen_428<br>DNA ID/GenBank NO: 428<br>chemotype: UV-<br>lineage: lineage B<br>Phenotype: cylindrical, UV-<br>Country: Austria<br>GPS coordinates:  47.0683333°, 014.5700000°<br>Haplotype number: H8",Austria_SeetakerAlpen_428,428,UV-,lineage B,"cylindrical, UV-",Austria," 47.0683333°, 014.5700000°",H8,47.0683333,14.57,47.0683333,14.57,,
14.57,47.0683333,T. vermicularis,"Sample ID new: Austria_SeetakerAlpen_429<br>DNA ID/GenBank NO: 429<br>chemotype: UV-<br>lineage: lineage B<br>Phenotype: cylindrical, UV-<br>Country: Austria<br>GPS coordinates:  47.0683333°, 014.5700000°<br>Haplotype number: H8",Austria_SeetakerAlpen_429,429,UV-,lineage B,"cylindrical, UV-",Austria," 47.0683333°, 014.5700000°",H8,47.0683333,14.57,47.0683333,14.57,,
14.57,47.0683333,T. vermicularis v. subuliformis,"Sample ID new: Austria_SeetakerAlpen_430<br>DNA ID/GenBank NO: 430<br>chemotype: UV+<br>lineage: lineage C<br>Phenotype: cylindrical, UV+<br>Country: Austria<br>GPS coordinates:  47.0683333°, 014.5700000°<br>Haplotype number: H1",Austria_SeetakerAlpen_430,430,UV+,lineage C,"cylindrical, UV+",Austria," 47.0683333°, 014.5700000°",H1,47.0683333,14.57,47.0683333,14.57,,
14.57,47.0683333,T. vermicularis v. subuliformis,"Sample ID new: Austria_SeetakerAlpen_431<br>DNA ID/GenBank NO: 431<br>chemotype: UV+<br>lineage: lineage C<br>Phenotype: cylindrical, UV+<br>Country: Austria<br>GPS coordinates:  47.0683333°, 014.5700000°<br>Haplotype number: H1",Austria_SeetakerAlpen_431,431,UV+,lineage C,"cylindrical, UV+",Austria," 47.0683333°, 014.5700000°",H1,47.0683333,14.57,47.0683333,14.57,,
14.57,47.0683333,T. vermicularis v. subuliformis,"Sample ID new: Austria_SeetakerAlpen_432<br>DNA ID/GenBank NO: 432<br>chemotype: UV+<br>lineage: lineage C<br>Phenotype: cylindrical, UV+<br>Country: Austria<br>GPS coordinates:  47.0683333°, 014.5700000°<br>Haplotype number: H1",Austria_SeetakerAlpen_432,432,UV+,lineage C,"cylindrical, UV+",Austria," 47.0683333°, 014.5700000°",H1,47.0683333,14.57,47.0683333,14.57,,
-68.0589167,-16.2986944,T. vermicularis,"Sample ID new: Bolivia_SamanaPapa_386<br>DNA ID/GenBank NO: 386<br>chemotype: UV-<br>lineage: lineage C<br>Phenotype: cylindrical, UV-<br>Country: Bolivia<br>GPS coordinates:  -16.2986944°, -068.0589167°<br>Haplotype number: H1",Bolivia_SamanaPapa_386,386,UV-,lineage C,"cylindrical, UV-",Bolivia," -16.2986944°, -068.0589167°",H1,-16.2986944,-68.0589167,-16.2986944,-68.0589167,,
-68.0589167,-16.2986944,T. vermicularis,"Sample ID new: Bolivia_SamanaPapa_387<br>DNA ID/GenBank NO: 387<br>chemotype: UV-<br>lineage: lineage C<br>Phenotype: cylindrical, UV-<br>Country: Bolivia<br>GPS coordinates:  -16.2986944°, -068.0589167°<br>Haplotype number: H1",Bolivia_SamanaPapa_387,387,UV-,lineage C,"cylindrical, UV-",Bolivia," -16.2986944°, -068.0589167°",H1,-16.2986944,-68.0589167,-16.2986944,-68.0589167,,
-68.0589167,-16.2986944,T. vermicularis,"Sample ID new: Bolivia_SamanaPapa_388<br>DNA ID/GenBank NO: 388<br>chemotype: UV-<br>lineage: lineage C<br>Phenotype: cylindrical, UV-<br>Country: Bolivia<br>GPS coordinates:  -16.2986944°, -068.0589167°<br>Haplotype number: H1",Bolivia_SamanaPapa_388,388,UV-,lineage C,"cylindrical, UV-",Bolivia," -16.2986944°, -068.0589167°",H1,-16.2986944,-68.0589167,-16.2986944,-68.0589167,,
-68.0589167,-16.2986944,T. vermicularis,"Sample ID new: Bolivia_SamanaPapa_389<br>DNA ID/GenBank NO: 389<br>chemotype: UV-<br>lineage: lineage C<br>Phenotype: cylindrical, UV-<br>Country: Bolivia<br>GPS coordinates:  -16.2986944°, -068.0589167°<br>Haplotype number: H1",Bolivia_SamanaPapa_389,389,UV-,lineage C,"cylindrical, UV-",Bolivia," -16.2986944°, -068.0589167°",H1,-16.2986944,-68.0589167,-16.2986944,-68.0589167,,
-68.0589167,-16.2986944,T. vermicularis,"Sample ID new: Bolivia_SamanaPapa_390<br>DNA ID/GenBank NO: 390<br>chemotype: UV-<br>lineage: lineage C<br>Phenotype: cylindrical, UV-<br>Country: Bolivia<br>GPS coordinates:  -16.2986944°, -068.0589167°<br>Haplotype number: H1",Bolivia_SamanaPapa_390,390,UV-,lineage C,"cylindrical, UV-",Bolivia," -16.2986944°, -068.0589167°",H1,-16.2986944,-68.0589167,-16.2986944,-68.0589167,,
-71.5,-52.8333333,T. vermicularis v. subuliformis,"Sample ID new: Chile_Brunswick_557.1<br>DNA ID/GenBank NO: 557.1<br>chemotype: UV+<br>lineage: lineage C<br>Phenotype: cylindrical, UV+<br>Country: Chile<br>GPS coordinates:  -52.8333333°, -071.5000000°<br>Haplotype number: H1",Chile_Brunswick_557.1,557.1,UV+,lineage C,"cylindrical, UV+",Chile," -52.8333333°, -071.5000000°",H1,-52.8333333,-71.5,-52.8333333,-71.5,,
-71.5,-52.8333333,T. vermicularis v. subuliformis,"Sample ID new: Chile_Brunswick_557.2<br>DNA ID/GenBank NO: 557.2<br>chemotype: UV+<br>lineage: lineage C<br>Phenotype: cylindrical, UV+<br>Country: Chile<br>GPS coordinates:  -52.8333333°, -071.5000000°<br>Haplotype number: H1",Chile_Brunswick_557.2,557.2,UV+,lineage C,"cylindrical, UV+",Chile," -52.8333333°, -071.5000000°",H1,-52.8333333,-71.5,-52.8333333,-71.5,,
-71.5,-52.8333333,T. vermicularis v. subuliformis,"Sample ID new: Chile_Brunswick_557.3<br>DNA ID/GenBank NO: 557.3<br>chemotype: UV+<br>lineage: lineage C<br>Phenotype: cylindrical, UV+<br>Country: Chile<br>GPS coordinates:  -52.8333333°, -071.5000000°<br>Haplotype number: H1",Chile_Brunswick_557.3,557.3,UV+,lineage C,"cylindrical, UV+",Chile," -52.8333333°, -071.5000000°",H1,-52.8333333,-71.5,-52.8333333,-71.5,,
-70.8201056,77.7788639,T. vermicularis v. subuliformis,"Sample ID new: Greenland_Siorapaluk_300<br>DNA ID/GenBank NO: 300<br>chemotype: UV+<br>lineage: lineage C<br>Phenotype: cylindrical, UV+<br>Country: Greenland<br>GPS coordinates:  77.7788639°, -070.8201056°<br>Haplotype number: H1",Greenland_Siorapaluk_300,300,UV+,lineage C,"cylindrical, UV+",Greenland," 77.7788639°, -070.8201056°",H1,77.7788639,-70.8201056,77.7788639,-70.8201056,KY559156,
81.6977778,30.1544444,T. vermicularis v. subuliformis,"Sample ID new: Nepal_Humla_355.1<br>DNA ID/GenBank NO: 355.1<br>chemotype: UV+<br>lineage: lineage C<br>Phenotype: cylindrical, UV+<br>Country: Nepal<br>GPS coordinates:  30.1544444°, 081.6977778°<br>Haplotype number: H1",Nepal_Humla_355.1,355.1,UV+,lineage C,"cylindrical, UV+",Nepal," 30.1544444°, 081.6977778°",H1,30.1544444,81.6977778,30.1544444,81.6977778,KY559120,
81.6977778,30.1544444,T. vermicularis v. subuliformis,"Sample ID new: Nepal_Humla_356<br>DNA ID/GenBank NO: 356<br>chemotype: UV+<br>lineage: lineage C<br>Phenotype: cylindrical, UV+<br>Country: Nepal<br>GPS coordinates:  30.1544444°, 081.6977778°<br>Haplotype number: H1",Nepal_Humla_356,356,UV+,lineage C,"cylindrical, UV+",Nepal," 30.1544444°, 081.6977778°",H1,30.1544444,81.6977778,30.1544444,81.6977778,KY559121,
29.8948667,70.2339222,T. vermicularis v. subuliformis,"Sample ID new: Norway_Finmark_122<br>DNA ID/GenBank NO: 122<br>chemotype: UV+<br>lineage: lineage C<br>Phenotype: cylindrical, UV+<br>Country: Norway<br>GPS coordinates:  70.2339222°, 029.8948667°<br>Haplotype number: H1",Norway_Finmark_122,122,UV+,lineage C,"cylindrical, UV+",Norway," 70.2339222°, 029.8948667°",H1,70.2339222,29.8948667,70.2339222,29.8948667,KY559132,
16.4489778,56.5009944,T. vermicularis v. subuliformis,"Sample ID new: Sweden_Öland_26<br>DNA ID/GenBank NO: 26<br>chemotype: UV+<br>lineage: lineage C<br>Phenotype: cylindrical, UV+<br>Country: Sweden<br>GPS coordinates:  56.5009944°, 016.4489778°<br>Haplotype number: H1",Sweden_Öland_26,26,UV+,lineage C,"cylindrical, UV+",Sweden," 56.5009944°, 016.4489778°",H1,56.5009944,16.4489778,56.5009944,16.4489778,KY559206,
16.4489778,56.5009944,T. vermicularis v. subuliformis,"Sample ID new: Sweden_Öland_28<br>DNA ID/GenBank NO: 28<br>chemotype: UV+<br>lineage: lineage C<br>Phenotype: cylindrical, UV+<br>Country: Sweden<br>GPS coordinates:  56.5009944°, 016.4489778°<br>Haplotype number: H1",Sweden_Öland_28,28,UV+,lineage C,"cylindrical, UV+",Sweden," 56.5009944°, 016.4489778°",H1,56.5009944,16.4489778,56.5009944,16.4489778,KY559208,
16.4489778,56.5009944,T. vermicularis v. subuliformis,"Sample ID new: Sweden_Öland_29<br>DNA ID/GenBank NO: 29<br>chemotype: UV+<br>lineage: lineage C<br>Phenotype: cylindrical, UV+<br>Country: Sweden<br>GPS coordinates:  56.5009944°, 016.4489778°<br>Haplotype number: H1",Sweden_Öland_29,29,UV+,lineage C,"cylindrical, UV+",Sweden," 56.5009944°, 016.4489778°",H1,56.5009944,16.4489778,56.5009944,16.4489778,KY559195,
16.4489778,56.5009944,T. vermicularis v. subuliformis,"Sample ID new: Sweden_Öland_35<br>DNA ID/GenBank NO: 35<br>chemotype: UV+<br>lineage: lineage C<br>Phenotype: cylindrical, UV+<br>Country: Sweden<br>GPS coordinates:  56.5009944°, 016.4489778°<br>Haplotype number: H1",Sweden_Öland_35,35,UV+,lineage C,"cylindrical, UV+",Sweden," 56.5009944°, 016.4489778°",H1,56.5009944,16.4489778,56.5009944,16.4489778,KY559199,
-77.75525,-8.8587778,T. vermicularis,"Sample ID new: Peru_CordilleraBlanca_478<br>DNA ID/GenBank NO: 478<br>chemotype: UV-<br>lineage: lineage C<br>Phenotype: cylindrical, UV-<br>Country: Peru<br>GPS coordinates:  -08.8587778°, -077.7552500°<br>Haplotype number: H1",Peru_CordilleraBlanca_478,478,UV-,lineage C,"cylindrical, UV-",Peru," -08.8587778°, -077.7552500°",H1,-8.8587778,-77.75525,-8.8587778,-77.75525,,
-77.75525,-8.8587778,T. vermicularis,"Sample ID new: Peru_CordilleraBlanca_479<br>DNA ID/GenBank NO: 479<br>chemotype: UV-<br>lineage: lineage C<br>Phenotype: cylindrical, UV-<br>Country: Peru<br>GPS coordinates:  -08.8587778°, -077.7552500°<br>Haplotype number: H1",Peru_CordilleraBlanca_479,479,UV-,lineage C,"cylindrical, UV-",Peru," -08.8587778°, -077.7552500°",H1,-8.8587778,-77.75525,-8.8587778,-77.75525,,
-77.75525,-8.8587778,T. vermicularis,"Sample ID new: Peru_CordilleraBlanca_481<br>DNA ID/GenBank NO: 481<br>chemotype: UV-<br>lineage: lineage C<br>Phenotype: cylindrical, UV-<br>Country: Peru<br>GPS coordinates:  -08.8587778°, -077.7552500°<br>Haplotype number: H1",Peru_CordilleraBlanca_481,481,UV-,lineage C,"cylindrical, UV-",Peru," -08.8587778°, -077.7552500°",H1,-8.8587778,-77.75525,-8.8587778,-77.75525,,
20.0897222,49.1880556,T. vermicularis v. subuliformis,"Sample ID new: Poland_TatraMt_303<br>DNA ID/GenBank NO: 303<br>chemotype: UV+<br>lineage: lineage C<br>Phenotype: cylindrical, UV+<br>Country: Poland<br>GPS coordinates: 49.1880556°, 020.0897222°<br>Haplotype number: H1",Poland_TatraMt_303,303,UV+,lineage C,"cylindrical, UV+",Poland,"49.1880556°, 020.0897222°",H1,49.1880556,20.0897222,49.1880556,20.0897222,KY559158,
25.4956083,45.3613722,T. vermicularis v. subuliformis,"Sample ID new: Romania_BucegiMt_239.1<br>DNA ID/GenBank NO: 239.1<br>chemotype: UV+<br>lineage: lineage C<br>Phenotype: cylindrical, UV+<br>Country: Romania<br>GPS coordinates: 45.3613722°, 025.4956083°<br>Haplotype number: H1",Romania_BucegiMt_239.1,239.1,UV+,lineage C,"cylindrical, UV+",Romania,"45.3613722°, 025.4956083°",H1,45.3613722,25.4956083,45.3613722,25.4956083,KY559176,
25.4956083,45.3613722,T. vermicularis,"Sample ID new: Romania_BucegiMt_239.2<br>DNA ID/GenBank NO: 239.2<br>chemotype: UV-<br>lineage: lineage C<br>Phenotype: cylindrical, UV-<br>Country: Romania<br>GPS coordinates: 45.3613722°, 025.4956083°<br>Haplotype number: H1",Romania_BucegiMt_239.2,239.2,UV-,lineage C,"cylindrical, UV-",Romania,"45.3613722°, 025.4956083°",H1,45.3613722,25.4956083,45.3613722,25.4956083,KY559179,
7.913225,46.652329,T. vermicularis,"Sample ID new: Switzerland_SchynigePlatteau_433<br>DNA ID/GenBank NO: 433<br>chemotype: UV-<br>lineage: lineage B<br>Phenotype: cylindrical, UV-<br>Country: Switzerland<br>GPS coordinates:  46.6523290°, 007.9132250°<br>Haplotype number: H8",Switzerland_SchynigePlatteau_433,433,UV-,lineage B,"cylindrical, UV-",Switzerland," 46.6523290°, 007.9132250°",H8,46.652329,7.913225,46.652329,7.913225,,
-154.4493,67.1959417,T. vermicularis v. subuliformis,"Sample ID new: USA_Walker_205<br>DNA ID/GenBank NO: 205<br>chemotype: UV+<br>lineage: lineage C<br>Phenotype: cylindrical, UV+<br>Country: U.S.A.<br>GPS coordinates:  67.1959417°, -154.4493000°<br>Haplotype number: H1",USA_Walker_205,205,UV+,lineage C,"cylindrical, UV+",U.S.A.," 67.1959417°, -154.4493000°",H1,67.1959417,-154.4493,67.1959417,-154.4493,KY559133,
60,80.9666667,T. vermicularis v. subuliformis,"Sample ID new: Russia_FranzJosef_323<br>DNA ID/GenBank NO: 323<br>chemotype: UV+<br>lineage: lineage A<br>Phenotype: cylindrical, UV+<br>Country: Russia<br>GPS coordinates: 80.9666667°, 060.0000000°<br>Haplotype number: H9",Russia_FranzJosef_323,323,UV+,lineage A,"cylindrical, UV+",Russia,"80.9666667°, 060.0000000°",H9,80.9666667,60,80.9666667,60,KY559217,
12,63,T. vermicularis v. subuliformis,"Sample ID new: Sweden_Jaemtlands_217.1<br>DNA ID/GenBank NO: 217.1<br>chemotype: UV+<br>lineage: lineage A<br>Phenotype: cylindrical, UV+<br>Country: Sweden<br>GPS coordinates:  63.0000000°, 012.0000000°<br>Haplotype number: H9",Sweden_Jaemtlands_217.1,217.1,UV+,lineage A,"cylindrical, UV+",Sweden," 63.0000000°, 012.0000000°",H9,63,12,63,12,KY559213,
12,63,T. vermicularis,"Sample ID new: Sweden_Jaemtlands_217.2<br>DNA ID/GenBank NO: 217.2<br>chemotype: UV-<br>lineage: lineage C<br>Phenotype: cylindrical, UV-<br>Country: Sweden<br>GPS coordinates:  63.0000000°, 012.0000000°<br>Haplotype number: H1",Sweden_Jaemtlands_217.2,217.2,UV-,lineage C,"cylindrical, UV-",Sweden," 63.0000000°, 012.0000000°",H1,63,12,63,12,KY559235,
29.2200583,69.9514889,T. vermicularis,"Sample ID new: Norway_Finmark_119.1<br>DNA ID/GenBank NO: 119.1<br>chemotype: UV-<br>lineage: lineage C<br>Phenotype: cylindrical, UV-<br>Country: Norway<br>GPS coordinates:  69.9514889°, 029.2200583°<br>Haplotype number: H1",Norway_Finmark_119.1,119.1,UV-,lineage C,"cylindrical, UV-",Norway," 69.9514889°, 029.2200583°",H1,69.9514889,29.2200583,69.9514889,29.2200583,KY559211,
-77.625,-8.8349722,T. vermicularis v. vermicularis,"Sample ID new: Peru_LagunaSafunaBaja_482<br>DNA ID/GenBank NO: 482<br>chemotype: UV-<br>lineage: lineage C<br>Phenotype: cylindrical, UV-<br>Country: Peru<br>GPS coordinates:  -08.8349722°, -077.6250000°<br>Haplotype number: H1",Peru_LagunaSafunaBaja_482,482,UV-,lineage C,"cylindrical, UV-",Peru," -08.8349722°, -077.6250000°",H1,-8.8349722,-77.625,-8.8349722,-77.625,,
-77.625,-8.8349722,"flat, UV-","Sample ID new: Peru_LagunaSafunaBaja_484<br>DNA ID/GenBank NO: 484<br>chemotype: UV-<br>lineage: lineage C<br>Phenotype: flat, UV-<br>Country: Peru<br>GPS coordinates:  -08.8349722°, -077.6250000°<br>Haplotype number: H1",Peru_LagunaSafunaBaja_484,484,UV-,lineage C,"flat, UV-",Peru," -08.8349722°, -077.6250000°",H1,-8.8349722,-77.625,-8.8349722,-77.625,,
-77.625,-8.8349722,T. vermicularis v. vermicularis,"Sample ID new: Peru_LagunaSafunaBaja_485<br>DNA ID/GenBank NO: 485<br>chemotype: UV-<br>lineage: lineage C<br>Phenotype: cylindrical, UV-<br>Country: Peru<br>GPS coordinates:  -08.8349722°, -077.6250000°<br>Haplotype number: H1",Peru_LagunaSafunaBaja_485,485,UV-,lineage C,"cylindrical, UV-",Peru," -08.8349722°, -077.6250000°",H1,-8.8349722,-77.625,-8.8349722,-77.625,,
20.028611,49.218333,T. vermicularis v. subuliformis,"Sample ID new: Poland_TatraMt_304<br>DNA ID/GenBank NO: 304<br>chemotype: UV+<br>lineage: lineage C<br>Phenotype: cylindrical, UV+<br>Country: Poland<br>GPS coordinates: 49.2183330°, 020.0286110°<br>Haplotype number: H1",Poland_TatraMt_304,304,UV+,lineage C,"cylindrical, UV+",Poland,"49.2183330°, 020.0286110°",H1,49.218333,20.028611,49.218333,20.028611,KY559159,
55.1666667,80.4166667,T. vermicularis v. subuliformis,"Sample ID new: Russia_FranzJosef_324<br>DNA ID/GenBank NO: 324<br>chemotype: UV+<br>lineage: lineage C<br>Phenotype: cylindrical, UV+<br>Country: Russia<br>GPS coordinates:  80.4166667°, 055.1666667°<br>Haplotype number: H1",Russia_FranzJosef_324,324,UV+,lineage C,"cylindrical, UV+",Russia," 80.4166667°, 055.1666667°",H1,80.4166667,55.1666667,80.4166667,55.1666667,KY559218,
-18.5,63.5,T. vermicularis v. subuliformis,"Sample ID new: Iceland_Skaftafellssysla_103<br>DNA ID/GenBank NO: 103<br>chemotype: UV+<br>lineage: lineage C<br>Phenotype: cylindrical, UV+<br>Country: Iceland<br>GPS coordinates:  63.5000000°, -018.5000000°<br>Haplotype number: H5",Iceland_Skaftafellssysla_103,103,UV+,lineage C,"cylindrical, UV+",Iceland," 63.5000000°, -018.5000000°",H5,63.5,-18.5,63.5,-18.5,KY559127,
86.8786111,27.7477778,T. vermicularis,"Sample ID new: Nepal_Thare_363<br>DNA ID/GenBank NO: 363<br>chemotype: UV-<br>lineage: lineage C<br>Phenotype: cylindrical, UV-<br>Country: Nepal<br>GPS coordinates:  27.7477778°, 086.8786111°<br>Haplotype number: H1",Nepal_Thare_363,363,UV-,lineage C,"cylindrical, UV-",Nepal," 27.7477778°, 086.8786111°",H1,27.7477778,86.8786111,27.7477778,86.8786111,KY559122,
86.8786111,27.7477778,T. vermicularis,"Sample ID new: Nepal_Thare_366<br>DNA ID/GenBank NO: 366<br>chemotype: UV-<br>lineage: lineage C<br>Phenotype: cylindrical, UV-<br>Country: Nepal<br>GPS coordinates:  27.7477778°, 086.8786111°<br>Haplotype number: H1",Nepal_Thare_366,366,UV-,lineage C,"cylindrical, UV-",Nepal," 27.7477778°, 086.8786111°",H1,27.7477778,86.8786111,27.7477778,86.8786111,KY559123,
28.55444,70.172996,T. vermicularis v. subuliformis,"Sample ID new: Norway_Finmark_124<br>DNA ID/GenBank NO: 124<br>chemotype: UV+<br>lineage: lineage C<br>Phenotype: cylindrical, UV+<br>Country: Norway<br>GPS coordinates:  70.1729960°, 028.5544400°<br>Haplotype number: H1",Norway_Finmark_124,124,UV+,lineage C,"cylindrical, UV+",Norway," 70.1729960°, 028.5544400°",H1,70.172996,28.55444,70.172996,28.55444,KY559231,
-77.59425,-9.0310556,T. vermicularis,"Sample ID new: Peru_Yanapaccha_489<br>DNA ID/GenBank NO: 489<br>chemotype: UV-<br>lineage: lineage C<br>Phenotype: cylindrical, UV-<br>Country: Peru<br>GPS coordinates:  -09.0310556°, -077.5942500°<br>Haplotype number: H1",Peru_Yanapaccha_489,489,UV-,lineage C,"cylindrical, UV-",Peru," -09.0310556°, -077.5942500°",H1,-9.0310556,-77.59425,-9.0310556,-77.59425,,
-77.59425,-9.0310556,"flat, UV-","Sample ID new: Peru_Yanapaccha_491<br>DNA ID/GenBank NO: 491<br>chemotype: UV-<br>lineage: lineage C<br>Phenotype: flat, UV-<br>Country: Peru<br>GPS coordinates:  -09.0310556°, -077.5942500°<br>Haplotype number: H1",Peru_Yanapaccha_491,491,UV-,lineage C,"flat, UV-",Peru," -09.0310556°, -077.5942500°",H1,-9.0310556,-77.59425,-9.0310556,-77.59425,,
20.13,49.17,T. vermicularis v. subuliformis,"Sample ID new: Poland_TatraMt_305<br>DNA ID/GenBank NO: 305<br>chemotype: UV+<br>lineage: lineage C<br>Phenotype: cylindrical, UV+<br>Country: Poland<br>GPS coordinates: 49.1700000°, 020.1300000°<br>Haplotype number: H5",Poland_TatraMt_305,305,UV+,lineage C,"cylindrical, UV+",Poland,"49.1700000°, 020.1300000°",H5,49.17,20.13,49.17,20.13,KY559174,
25.3140972,45.29835,T. vermicularis v. subuliformis,"Sample ID new: Romania_BucegiMt_97<br>DNA ID/GenBank NO: 97<br>chemotype: UV+<br>lineage: lineage C<br>Phenotype: cylindrical, UV+<br>Country: Romania<br>GPS coordinates: 45.2983500°, 025.3140972°<br>Haplotype number: H1",Romania_BucegiMt_97,97,UV+,lineage C,"cylindrical, UV+",Romania,"45.2983500°, 025.3140972°",H1,45.29835,25.3140972,45.29835,25.3140972,KY559180,
-153.01934,67.36877,T. vermicularis v. subuliformis,"Sample ID new: USA_Takahula_212<br>DNA ID/GenBank NO: 212<br>chemotype: UV+<br>lineage: lineage C<br>Phenotype: cylindrical, UV+<br>Country: U.S.A.<br>GPS coordinates: 67.3687700°, -153.0193400°<br>Haplotype number: H1",USA_Takahula_212,212,UV+,lineage C,"cylindrical, UV+",U.S.A.,"67.3687700°, -153.0193400°",H1,67.36877,-153.01934,67.36877,-153.01934,KY559135,
-17.616667,65.816666,T. vermicularis v. subuliformis,"Sample ID new: Iceland_Naustavik_104<br>DNA ID/GenBank NO: 104<br>chemotype: UV+<br>lineage: lineage C<br>Phenotype: cylindrical, UV+<br>Country: Iceland<br>GPS coordinates: 65.816666°,  -17.616667°<br>Haplotype number: H1",Iceland_Naustavik_104,104,UV+,lineage C,"cylindrical, UV+",Iceland,"65.816666°,  -17.616667°",H1,65.816666,-17.616667,65.816666,-17.616667,KY559128,
29.47961,69.99602,T. vermicularis,"Sample ID new: Norway_Finmark_116<br>DNA ID/GenBank NO: 116<br>chemotype: UV-<br>lineage: lineage C<br>Phenotype: cylindrical, UV-<br>Country: Norway<br>GPS coordinates: 69.9960200°, 029.4796100°<br>Haplotype number: H1",Norway_Finmark_116,116,UV-,lineage C,"cylindrical, UV-",Norway,"69.9960200°, 029.4796100°",H1,69.99602,29.47961,69.99602,29.47961,KY559209,
29.47961,69.99602,T. vermicularis v. subuliformis,"Sample ID new: Norway_Finmark_117<br>DNA ID/GenBank NO: 117<br>chemotype: UV+<br>lineage: lineage A<br>Phenotype: cylindrical, UV+<br>Country: Norway<br>GPS coordinates: 69.9960200°, 029.4796100°<br>Haplotype number: H9",Norway_Finmark_117,117,UV+,lineage A,"cylindrical, UV+",Norway,"69.9960200°, 029.4796100°",H9,69.99602,29.47961,69.99602,29.47961,KY559212,
29.47961,69.99602,T. vermicularis,"Sample ID new: Norway_Finmark_118<br>DNA ID/GenBank NO: 118<br>chemotype: UV-<br>lineage: lineage C<br>Phenotype: cylindrical, UV-<br>Country: Norway<br>GPS coordinates: 69.9960200°, 029.4796100°<br>Haplotype number: H1",Norway_Finmark_118,118,UV-,lineage C,"cylindrical, UV-",Norway,"69.9960200°, 029.4796100°",H1,69.99602,29.47961,69.99602,29.47961,KY559210,
-77.5195,-9.0954167,"flat, UV+","Sample ID new: Peru_AlbodePucaraju_492<br>DNA ID/GenBank NO: 492<br>chemotype: UV+<br>lineage: lineage C<br>Phenotype: flat, UV+<br>Country: Peru<br>GPS coordinates: -09.0954167°, -077.5195000°<br>Haplotype number: H1",Peru_AlbodePucaraju_492,492,UV+,lineage C,"flat, UV+",Peru,"-09.0954167°, -077.5195000°",H1,-9.0954167,-77.5195,-9.0954167,-77.5195,,
-77.5195,-9.0954167,T. vermicularis,"Sample ID new: Peru_AlbodePucaraju_495<br>DNA ID/GenBank NO: 495<br>chemotype: UV-<br>lineage: lineage C<br>Phenotype: cylindrical, UV-<br>Country: Peru<br>GPS coordinates:  -09.0954167°, -077.5195000°<br>Haplotype number: H1",Peru_AlbodePucaraju_495,495,UV-,lineage C,"cylindrical, UV-",Peru," -09.0954167°, -077.5195000°",H1,-9.0954167,-77.5195,-9.0954167,-77.5195,,
-77.5195,-9.0954167,T. vermicularis,"Sample ID new: Peru_AlbodePucaraju_496<br>DNA ID/GenBank NO: 496<br>chemotype: UV-<br>lineage: lineage C<br>Phenotype: cylindrical, UV-<br>Country: Peru<br>GPS coordinates:  -09.0954167°, -077.5195000°<br>Haplotype number: H1",Peru_AlbodePucaraju_496,496,UV-,lineage C,"cylindrical, UV-",Peru," -09.0954167°, -077.5195000°",H1,-9.0954167,-77.5195,-9.0954167,-77.5195,,
20.133333,49.166667,T. vermicularis,"Sample ID new: Poland_TatraMt_306<br>DNA ID/GenBank NO: 306<br>chemotype: UV-<br>lineage: lineage B<br>Phenotype: cylindrical, UV-<br>Country: Poland<br>GPS coordinates:  49.1666670°, 020.1333330°<br>Haplotype number: H8",Poland_TatraMt_306,306,UV-,lineage B,"cylindrical, UV-",Poland," 49.1666670°, 020.1333330°",H8,49.166667,20.133333,49.166667,20.133333,KY559160,
-23.3585778,65.5048167,T. vermicularis v. subuliformis,"Sample ID new: Iceland_Vadalfjol_105<br>DNA ID/GenBank NO: 105<br>chemotype: UV+<br>lineage: lineage C<br>Phenotype: cylindrical, UV+<br>Country: Iceland<br>GPS coordinates:  65.5048167°, -023.3585778°<br>Haplotype number: H1",Iceland_Vadalfjol_105,105,UV+,lineage C,"cylindrical, UV+",Iceland," 65.5048167°, -023.3585778°",H1,65.5048167,-23.3585778,65.5048167,-23.3585778,KY559129,
16.4159778,56.2683111,T. vermicularis v. subuliformis,"Sample ID new: Sweden_Öland_164<br>DNA ID/GenBank NO: 164<br>chemotype: UV+<br>lineage: lineage C<br>Phenotype: cylindrical, UV+<br>Country: Sweden<br>GPS coordinates:  56.2683111°, 016.4159778°<br>Haplotype number: H1",Sweden_Öland_164,164,UV+,lineage C,"cylindrical, UV+",Sweden," 56.2683111°, 016.4159778°",H1,56.2683111,16.4159778,56.2683111,16.4159778,KY559222,
-77.4165278,-9.3891389,T. vermicularis,"Sample ID new: Peru_Langoni_497<br>DNA ID/GenBank NO: 497<br>chemotype: UV-<br>lineage: lineage C<br>Phenotype: cylindrical, UV-<br>Country: Peru<br>GPS coordinates:  -09.3891389°, -077.4165278°<br>Haplotype number: H1",Peru_Langoni_497,497,UV-,lineage C,"cylindrical, UV-",Peru," -09.3891389°, -077.4165278°",H1,-9.3891389,-77.4165278,-9.3891389,-77.4165278,,
-77.4165278,-9.3891389,T. vermicularis,"Sample ID new: Peru_Langoni_500<br>DNA ID/GenBank NO: 500<br>chemotype: UV-<br>lineage: lineage C<br>Phenotype: cylindrical, UV-<br>Country: Peru<br>GPS coordinates:  -09.3891389°, -077.4165278°<br>Haplotype number: H1",Peru_Langoni_500,500,UV-,lineage C,"cylindrical, UV-",Peru," -09.3891389°, -077.4165278°",H1,-9.3891389,-77.4165278,-9.3891389,-77.4165278,,
-77.4165278,-9.3891389,T. vermicularis,"Sample ID new: Peru_Langoni_501<br>DNA ID/GenBank NO: 501<br>chemotype: UV-<br>lineage: lineage C<br>Phenotype: cylindrical, UV-<br>Country: Peru<br>GPS coordinates:  -09.3891389°, -077.4165278°<br>Haplotype number: H1",Peru_Langoni_501,501,UV-,lineage C,"cylindrical, UV-",Peru," -09.3891389°, -077.4165278°",H1,-9.3891389,-77.4165278,-9.3891389,-77.4165278,,
22.922519,45.380306,T. vermicularis v. subuliformis,"Sample ID new: Romania_RetezatMt_435<br>DNA ID/GenBank NO: 435<br>chemotype: UV+<br>lineage: lineage C<br>Phenotype: cylindrical, UV+<br>Country: Romania<br>GPS coordinates: 45.3803060°, 022.9225190°<br>Haplotype number: H1",Romania_RetezatMt_435,435,UV+,lineage C,"cylindrical, UV+",Romania,"45.3803060°, 022.9225190°",H1,45.380306,22.922519,45.380306,22.922519,,
41.6908333,43.4469444,T. vermicularis v. subuliformis,"Sample ID new: Russia_ MalayaKhatiparaMt_327<br>DNA ID/GenBank NO: 327<br>chemotype: UV+<br>lineage: lineage C<br>Phenotype: cylindrical, UV+<br>Country: Russia<br>GPS coordinates:  43.4469444°, 041.6908333°<br>Haplotype number: H6",Russia_ MalayaKhatiparaMt_327,327,UV+,lineage C,"cylindrical, UV+",Russia," 43.4469444°, 041.6908333°",H6,43.4469444,41.6908333,43.4469444,41.6908333,KY559112,
41.6908333,43.4469444,T. vermicularis v. subuliformis,"Sample ID new: Russia_ MalayaKhatiparaMt_328<br>DNA ID/GenBank NO: 328<br>chemotype: UV+<br>lineage: lineage C<br>Phenotype: cylindrical, UV+<br>Country: Russia<br>GPS coordinates:  43.4469444°, 041.6908333°<br>Haplotype number: H6",Russia_ MalayaKhatiparaMt_328,328,UV+,lineage C,"cylindrical, UV+",Russia," 43.4469444°, 041.6908333°",H6,43.4469444,41.6908333,43.4469444,41.6908333,KY559113,
-51.0961778,69.2041639,T. vermicularis v. subuliformis,"Sample ID new: Greenland_Ilulissat_252<br>DNA ID/GenBank NO: 252<br>chemotype: UV+<br>lineage: lineage C<br>Phenotype: cylindrical, UV+<br>Country: Greenland<br>GPS coordinates:  69.2041639°, -051.0961778°<br>Haplotype number: H1",Greenland_Ilulissat_252,252,UV+,lineage C,"cylindrical, UV+",Greenland," 69.2041639°, -051.0961778°",H1,69.2041639,-51.0961778,69.2041639,-51.0961778,KY559144,
7.5036944,60.6052222,T. vermicularis v. subuliformis,"Sample ID new: Norway_Hordaland_295<br>DNA ID/GenBank NO: 295<br>chemotype: UV+<br>lineage: lineage C<br>Phenotype: cylindrical, UV+<br>Country: Norway<br>GPS coordinates:  60.6052222°, 007.5036944°<br>Haplotype number: H1",Norway_Hordaland_295,295,UV+,lineage C,"cylindrical, UV+",Norway," 60.6052222°, 007.5036944°",H1,60.6052222,7.5036944,60.6052222,7.5036944,KY559173,
16.4838778,56.5346361,T. vermicularis v. subuliformis,"Sample ID new: Sweden_Öland_189<br>DNA ID/GenBank NO: 189<br>chemotype: UV+<br>lineage: lineage C<br>Phenotype: cylindrical, UV+<br>Country: Sweden<br>GPS coordinates: 56.5346361°, 016.4838778°<br>Haplotype number: H1",Sweden_Öland_189,189,UV+,lineage C,"cylindrical, UV+",Sweden,"56.5346361°, 016.4838778°",H1,56.5346361,16.4838778,56.5346361,16.4838778,KY559223,
-77.5530833,-9.1226833,"flat, UV-","Sample ID new: Peru_QuebradaMatara_502<br>DNA ID/GenBank NO: 502<br>chemotype: UV-<br>lineage: lineage C<br>Phenotype: flat, UV-<br>Country: Peru<br>GPS coordinates:  -09.1226833°, -077.5530833°<br>Haplotype number: H1",Peru_QuebradaMatara_502,502,UV-,lineage C,"flat, UV-",Peru," -09.1226833°, -077.5530833°",H1,-9.1226833,-77.5530833,-9.1226833,-77.5530833,,
-77.5530833,-9.1226833,T. vermicularis,"Sample ID new: Peru_QuebradaMatara_504<br>DNA ID/GenBank NO: 504<br>chemotype: UV-<br>lineage: lineage C<br>Phenotype: cylindrical, UV-<br>Country: Peru<br>GPS coordinates:  -09.1226833°, -077.5530833°<br>Haplotype number: H1",Peru_QuebradaMatara_504,504,UV-,lineage C,"cylindrical, UV-",Peru," -09.1226833°, -077.5530833°",H1,-9.1226833,-77.5530833,-9.1226833,-77.5530833,,
-77.5530833,-9.1226833,T. vermicularis,"Sample ID new: Peru_QuebradaMatara_505<br>DNA ID/GenBank NO: 505<br>chemotype: UV-<br>lineage: lineage C<br>Phenotype: cylindrical, UV-<br>Country: Peru<br>GPS coordinates:  -09.1226833°, -077.5530833°<br>Haplotype number: H1",Peru_QuebradaMatara_505,505,UV-,lineage C,"cylindrical, UV-",Peru," -09.1226833°, -077.5530833°",H1,-9.1226833,-77.5530833,-9.1226833,-77.5530833,,
22.873014,45.366928,T. vermicularis v. subuliformis,"Sample ID new: Romania_RetezatMt_449<br>DNA ID/GenBank NO: 449<br>chemotype: UV+<br>lineage: lineage C<br>Phenotype: cylindrical, UV+<br>Country: Romania<br>GPS coordinates: 45.3669280°, 022.8730140°<br>Haplotype number: H1",Romania_RetezatMt_449,449,UV+,lineage C,"cylindrical, UV+",Romania,"45.3669280°, 022.8730140°",H1,45.366928,22.873014,45.366928,22.873014,,
-155.6858889,66.9205444,T. vermicularis,"Sample ID new: USA_Selby_210.1<br>DNA ID/GenBank NO: 210.1<br>chemotype: UV-<br>lineage: lineage C<br>Phenotype: cylindrical, UV-<br>Country: U.S.A.<br>GPS coordinates: 66.9205444°, -155.6858889°<br>Haplotype number: H1",USA_Selby_210.1,210.1,UV-,lineage C,"cylindrical, UV-",U.S.A.,"66.9205444°, -155.6858889°",H1,66.9205444,-155.6858889,66.9205444,-155.6858889,KY559192,
-155.6858889,66.9205444,T. vermicularis v. subuliformis,"Sample ID new: USA_Selby_210.2<br>DNA ID/GenBank NO: 210.2<br>chemotype: UV+<br>lineage: lineage C<br>Phenotype: cylindrical, UV+<br>Country: U.S.A.<br>GPS coordinates: 66.9205444°, -155.6858889°<br>Haplotype number: H1",USA_Selby_210.2,210.2,UV+,lineage C,"cylindrical, UV+",U.S.A.,"66.9205444°, -155.6858889°",H1,66.9205444,-155.6858889,66.9205444,-155.6858889,KY559134,
5.9322556,61.8083389,T. vermicularis v. subuliformis,"Sample ID new: Norway_SognOgFjordane_296<br>DNA ID/GenBank NO: 296<br>chemotype: UV+<br>lineage: lineage C<br>Phenotype: cylindrical, UV+<br>Country: Norway<br>GPS coordinates:  61.8083389°, 005.9322556°<br>Haplotype number: H1",Norway_SognOgFjordane_296,296,UV+,lineage C,"cylindrical, UV+",Norway," 61.8083389°, 005.9322556°",H1,61.8083389,5.9322556,61.8083389,5.9322556,KY559155,
-77.5208056,-8.8846667,T. vermicularis,"Sample ID new: Peru_Tupatupa_507<br>DNA ID/GenBank NO: 507<br>chemotype: UV-<br>lineage: lineage C<br>Phenotype: cylindrical, UV-<br>Country: Peru<br>GPS coordinates:  -08.8846667°, -077.5208056°<br>Haplotype number: H1",Peru_Tupatupa_507,507,UV-,lineage C,"cylindrical, UV-",Peru," -08.8846667°, -077.5208056°",H1,-8.8846667,-77.5208056,-8.8846667,-77.5208056,,
-77.5208056,-8.8846667,T. vermicularis,"Sample ID new: Peru_Tupatupa_508<br>DNA ID/GenBank NO: 508<br>chemotype: UV-<br>lineage: lineage C<br>Phenotype: cylindrical, UV-<br>Country: Peru<br>GPS coordinates:  -08.8846667°, -077.5208056°<br>Haplotype number: H1",Peru_Tupatupa_508,508,UV-,lineage C,"cylindrical, UV-",Peru," -08.8846667°, -077.5208056°",H1,-8.8846667,-77.5208056,-8.8846667,-77.5208056,,
-77.5208056,-8.8846667,T. vermicularis,"Sample ID new: Peru_Tupatupa_511<br>DNA ID/GenBank NO: 511<br>chemotype: UV-<br>lineage: lineage C<br>Phenotype: cylindrical, UV-<br>Country: Peru<br>GPS coordinates:  -08.8846667°, -077.5208056°<br>Haplotype number: H1",Peru_Tupatupa_511,511,UV-,lineage C,"cylindrical, UV-",Peru," -08.8846667°, -077.5208056°",H1,-8.8846667,-77.5208056,-8.8846667,-77.5208056,,
22.852811,45.354675,T. vermicularis,"Sample ID new: Romania_RetezatMt_463<br>DNA ID/GenBank NO: 463<br>chemotype: UV-<br>lineage: lineage B<br>Phenotype: cylindrical, UV-<br>Country: Romania<br>GPS coordinates:  45.3546750°, 022.8528110°<br>Haplotype number: H8",Romania_RetezatMt_463,463,UV-,lineage B,"cylindrical, UV-",Romania," 45.3546750°, 022.8528110°",H8,45.354675,22.852811,45.354675,22.852811,,
94.1166667,52.8166667,T. vermicularis v. subuliformis,"Sample ID new: Russia_SayanMt_326<br>DNA ID/GenBank NO: 326<br>chemotype: UV+<br>lineage: lineage C<br>Phenotype: cylindrical, UV+<br>Country: Russia<br>GPS coordinates:  52.8166667°, 094.1166667°<br>Haplotype number: H1",Russia_SayanMt_326,326,UV+,lineage C,"cylindrical, UV+",Russia," 52.8166667°, 094.1166667°",H1,52.8166667,94.1166667,52.8166667,94.1166667,KY559111,
-149.6771667,61.0978333,T. vermicularis v. subuliformis,"Sample ID new: USA_Chugarch_JQ409342<br>DNA ID/GenBank NO: JQ409342<br>chemotype: UV+<br>lineage: lineage C<br>Phenotype: cylindrical, UV+<br>Country: U.S.A.<br>GPS coordinates: 61.0978333°, -149.6771667°<br>Haplotype number: H1",USA_Chugarch_JQ409342,JQ409342,UV+,lineage C,"cylindrical, UV+",U.S.A.,"61.0978333°, -149.6771667°",H1,61.0978333,-149.6771667,61.0978333,-149.6771667,,
-149.6771667,61.0978333,T. vermicularis,"Sample ID new: USA_Chugarch_JQ409344<br>DNA ID/GenBank NO: JQ409344<br>chemotype: UV-<br>lineage: lineage C<br>Phenotype: cylindrical, UV-<br>Country: U.S.A.<br>GPS coordinates: 61.0978333°, -149.6771667°<br>Haplotype number: H1",USA_Chugarch_JQ409344,JQ409344,UV-,lineage C,"cylindrical, UV-",U.S.A.,"61.0978333°, -149.6771667°",H1,61.0978333,-149.6771667,61.0978333,-149.6771667,,
-151.1888833,59.4265333,T. vermicularis,"Sample ID new: USA_Kinnikinnik_JQ409345<br>DNA ID/GenBank NO: JQ409345<br>chemotype: UV-<br>lineage: lineage C<br>Phenotype: cylindrical, UV-<br>Country: U.S.A.<br>GPS coordinates: 59.4265333°, -151.1888833°<br>Haplotype number: H1",USA_Kinnikinnik_JQ409345,JQ409345,UV-,lineage C,"cylindrical, UV-",U.S.A.,"59.4265333°, -151.1888833°",H1,59.4265333,-151.1888833,59.4265333,-151.1888833,,
-151.1888833,59.4265333,T. vermicularis v. subuliformis,"Sample ID new: USA_Kinnikinnik_JQ409347<br>DNA ID/GenBank NO: JQ409347<br>chemotype: UV+<br>lineage: lineage C<br>Phenotype: cylindrical, UV+<br>Country: U.S.A.<br>GPS coordinates: 59.4265333°, -151.1888833°<br>Haplotype number: H1",USA_Kinnikinnik_JQ409347,JQ409347,UV+,lineage C,"cylindrical, UV+",U.S.A.,"59.4265333°, -151.1888833°",H1,59.4265333,-151.1888833,59.4265333,-151.1888833,,
177.53985,51.9783833,T. vermicularis v. subuliformis,"Sample ID new: USA_Aleutian_EU714413<br>DNA ID/GenBank NO: EU714413<br>chemotype: UV+<br>lineage: lineage C<br>Phenotype: cylindrical, UV+<br>Country: U.S.A.<br>GPS coordinates:  51.9783833°,  177.5398500°<br>Haplotype number: H1",USA_Aleutian_EU714413,EU714413,UV+,lineage C,"cylindrical, UV+",U.S.A.," 51.9783833°,  177.5398500°",H1,51.9783833,177.53985,51.9783833,177.53985,,
177.53985,51.9783833,T. vermicularis,"Sample ID new: USA_Aleutian_EU714414<br>DNA ID/GenBank NO: EU714414<br>chemotype: UV-<br>lineage: T. vermicularis<br>Phenotype: cylindrical, UV-<br>Country: U.S.A.<br>GPS coordinates:  51.9783833°,  177.5398500°<br>Haplotype number: H1",USA_Aleutian_EU714414,EU714414,UV-,T. vermicularis,"cylindrical, UV-",U.S.A.," 51.9783833°,  177.5398500°",H1,51.9783833,177.53985,51.9783833,177.53985,,
177.53985,51.9783833,T. vermicularis,"Sample ID new: USA_Aleutian_EU714415<br>DNA ID/GenBank NO: EU714415<br>chemotype: UV-<br>lineage: T. vermicularis<br>Phenotype: cylindrical, UV-<br>Country: U.S.A.<br>GPS coordinates:  51.9783833°,  177.5398500°<br>Haplotype number: H1",USA_Aleutian_EU714415,EU714415,UV-,T. vermicularis,"cylindrical, UV-",U.S.A.," 51.9783833°,  177.5398500°",H1,51.9783833,177.53985,51.9783833,177.53985,,
177.53985,51.9783833,T. vermicularis v. subuliformis,"Sample ID new: USA_Aleutian_EU714416<br>DNA ID/GenBank NO: EU714416<br>chemotype: UV+<br>lineage: lineage A<br>Phenotype: cylindrical, UV+<br>Country: U.S.A.<br>GPS coordinates:  51.9783833°,  177.5398500°<br>Haplotype number: H9",USA_Aleutian_EU714416,EU714416,UV+,lineage A,"cylindrical, UV+",U.S.A.," 51.9783833°,  177.5398500°",H9,51.9783833,177.53985,51.9783833,177.53985,,
177.53985,51.9783833,T. vermicularis,"Sample ID new: USA_Aleutian_EU714417<br>DNA ID/GenBank NO: EU714417<br>chemotype: UV-<br>lineage: T. vermicularis<br>Phenotype: cylindrical, UV-<br>Country: U.S.A.<br>GPS coordinates:  51.9783833°,  177.5398500°<br>Haplotype number: H1",USA_Aleutian_EU714417,EU714417,UV-,T. vermicularis,"cylindrical, UV-",U.S.A.," 51.9783833°,  177.5398500°",H1,51.9783833,177.53985,51.9783833,177.53985,,
177.53985,51.9783833,T. vermicularis v. subuliformis,"Sample ID new: USA_Aleutian_EU714418<br>DNA ID/GenBank NO: EU714418<br>chemotype: UV+<br>lineage: lineage A<br>Phenotype: cylindrical, UV+<br>Country: U.S.A.<br>GPS coordinates:  51.9783833°,  177.5398500°<br>Haplotype number: H9",USA_Aleutian_EU714418,EU714418,UV+,lineage A,"cylindrical, UV+",U.S.A.," 51.9783833°,  177.5398500°",H9,51.9783833,177.53985,51.9783833,177.53985,,
-169.1632833,52.90675,T. vermicularis,"Sample ID new: USA_Aleutian_EU714419<br>DNA ID/GenBank NO: EU714419<br>chemotype: UV-<br>lineage: T. vermicularis<br>Phenotype: cylindrical, UV-<br>Country: U.S.A.<br>GPS coordinates: 52.9067500°, -169.1632833°<br>Haplotype number: H1",USA_Aleutian_EU714419,EU714419,UV-,T. vermicularis,"cylindrical, UV-",U.S.A.,"52.9067500°, -169.1632833°",H1,52.90675,-169.1632833,52.90675,-169.1632833,,
-171.1620333,52.5639833,T. vermicularis,"Sample ID new: USA_Aleutian_EU714420<br>DNA ID/GenBank NO: EU714420<br>chemotype: UV-<br>lineage: T. vermicularis<br>Phenotype: cylindrical, UV-<br>Country: U.S.A.<br>GPS coordinates: 52.5639833°, -171.1620333°<br>Haplotype number: H1",USA_Aleutian_EU714420,EU714420,UV-,T. vermicularis,"cylindrical, UV-",U.S.A.,"52.5639833°, -171.1620333°",H1,52.5639833,-171.1620333,52.5639833,-171.1620333,,
-171.1620333,52.5639833,T. vermicularis v. subuliformis,"Sample ID new: USA_Aleutian_EU714421<br>DNA ID/GenBank NO: EU714421<br>chemotype: UV+<br>lineage: lineage A<br>Phenotype: cylindrical, UV+<br>Country: U.S.A.<br>GPS coordinates: 52.5639833°, -171.1620333°<br>Haplotype number: H1",USA_Aleutian_EU714421,EU714421,UV+,lineage A,"cylindrical, UV+",U.S.A.,"52.5639833°, -171.1620333°",H1,52.5639833,-171.1620333,52.5639833,-171.1620333,,
173.9711667,54.7421833,T. vermicularis v. subuliformis,"Sample ID new: USA_Aleutian_EU714422<br>DNA ID/GenBank NO: EU714422<br>chemotype: UV+<br>lineage: lineage A<br>Phenotype: cylindrical, UV+<br>Country: U.S.A.<br>GPS coordinates: 54.7421833°, 173.9711667°<br>Haplotype number: H9",USA_Aleutian_EU714422,EU714422,UV+,lineage A,"cylindrical, UV+",U.S.A.,"54.7421833°, 173.9711667°",H9,54.7421833,173.9711667,54.7421833,173.9711667,,
173.9711667,54.7421833,T. vermicularis v. subuliformis,"Sample ID new: USA_Aleutian_EU714423<br>DNA ID/GenBank NO: EU714423<br>chemotype: UV+<br>lineage: lineage A<br>Phenotype: cylindrical, UV+<br>Country: U.S.A.<br>GPS coordinates: 54.7421833°, 173.9711667°<br>Haplotype number: H9",USA_Aleutian_EU714423,EU714423,UV+,lineage A,"cylindrical, UV+",U.S.A.,"54.7421833°, 173.9711667°",H9,54.7421833,173.9711667,54.7421833,173.9711667,,
-166.8711,53.4516167,T. vermicularis v. subuliformis,"Sample ID new: USA_Aleutian_EU714424<br>DNA ID/GenBank NO: EU714424<br>chemotype: UV+<br>lineage: lineage C<br>Phenotype: cylindrical, UV+<br>Country: U.S.A.<br>GPS coordinates: 53.4516167°, -166.8711000°<br>Haplotype number: H1",USA_Aleutian_EU714424,EU714424,UV+,lineage C,"cylindrical, UV+",U.S.A.,"53.4516167°, -166.8711000°",H1,53.4516167,-166.8711,53.4516167,-166.8711,,
177.6243833,51.9605667,T. vermicularis,"Sample ID new: USA_Aleutian_EU714427<br>DNA ID/GenBank NO: EU714427<br>chemotype: UV-<br>lineage: T. vermicularis<br>Phenotype: cylindrical, UV-<br>Country: U.S.A.<br>GPS coordinates: 51.9605667°, 177.6243833°<br>Haplotype number: H1",USA_Aleutian_EU714427,EU714427,UV-,T. vermicularis,"cylindrical, UV-",U.S.A.,"51.9605667°, 177.6243833°",H1,51.9605667,177.6243833,51.9605667,177.6243833,,
177.6243833,51.9605667,T. vermicularis v. subuliformis,"Sample ID new: USA_Aleutian_EU714428<br>DNA ID/GenBank NO: EU714428<br>chemotype: UV+<br>lineage: lineage A<br>Phenotype: cylindrical, UV+<br>Country: U.S.A.<br>GPS coordinates: 51.9605667°, 177.6243833°<br>Haplotype number: H9",USA_Aleutian_EU714428,EU714428,UV+,lineage A,"cylindrical, UV+",U.S.A.,"51.9605667°, 177.6243833°",H9,51.9605667,177.6243833,51.9605667,177.6243833,,
177.6243833,51.9605667,T. vermicularis,"Sample ID new: USA_Aleutian_EU714429<br>DNA ID/GenBank NO: EU714429<br>chemotype: UV-<br>lineage: T. vermicularis<br>Phenotype: cylindrical, UV-<br>Country: U.S.A.<br>GPS coordinates: 51.9605667°, 177.6243833°<br>Haplotype number: H1",USA_Aleutian_EU714429,EU714429,UV-,T. vermicularis,"cylindrical, UV-",U.S.A.,"51.9605667°, 177.6243833°",H1,51.9605667,177.6243833,51.9605667,177.6243833,,
148.3166667,-36.4,T. vermicularis,"Sample ID new: Australia_NewSouthWales_AY961602<br>DNA ID/GenBank NO: AY961602<br>chemotype: UV-<br>lineage: T. vermicularis<br>Phenotype: cylindrical, UV-<br>Country: Australia<br>GPS coordinates: -36.4000000	148.3166667<br>Haplotype number: H2",Australia_NewSouthWales_AY961602,AY961602,UV-,T. vermicularis,"cylindrical, UV-",Australia,"-36.4000000, 148.3166667",H2,-36.4,148.3166667,-36.4,148.3166667,,
148.3166667,-36.4,T. vermicularis,"Sample ID new: Australia_NewSouthWales_AY961603<br>DNA ID/GenBank NO: AY961603<br>chemotype: NA<br>lineage: T. vermicularis<br>Phenotype: cylindrical, unknown chemistry<br>Country: Australia<br>GPS coordinates: -36.4000000	148.3166667<br>Haplotype number: H2",Australia_NewSouthWales_AY961603,AY961603,NA,T. vermicularis,"cylindrical, unknown chemistry",Australia,"-36.4000000, 148.3166667",H2,-36.4,148.3166667,-36.4,148.3166667,,
-114.55,50.2416667,T. vermicularis v. subuliformis,"Sample ID new: Canada_PlateauMt_JQ409348<br>DNA ID/GenBank NO: JQ409348<br>chemotype: UV+<br>lineage: lineage C<br>Phenotype: cylindrical, UV+<br>Country: Canada<br>GPS coordinates: 50.2416667	-114.5500000<br>Haplotype number: H1",Canada_PlateauMt_JQ409348,JQ409348,UV+,lineage C,"cylindrical, UV+",Canada,"50.2416667, -114.5500000",H1,50.2416667,-114.55,50.2416667,-114.55,,
-115,50.6166667,T. vermicularis v. subuliformis,"Sample ID new: Canada_RaeMt_JQ409346<br>DNA ID/GenBank NO: JQ409346<br>chemotype: UV+<br>lineage: lineage C<br>Phenotype: cylindrical, UV+<br>Country: Canada<br>GPS coordinates: 50.6166667°, -115.0000000°<br>Haplotype number: H1",Canada_RaeMt_JQ409346,JQ409346,UV+,lineage C,"cylindrical, UV+",Canada,"50.6166667°, -115.0000000°",H1,50.6166667,-115,50.6166667,-115,,
-83.75,9.55,T. vermicularis v. subuliformis,"Sample ID new: CostaRica_SanJose_EU714434<br>DNA ID/GenBank NO: EU714434<br>chemotype: UV+<br>lineage: lineage C<br>Phenotype: cylindrical, UV+<br>Country: Costa Rica<br>GPS coordinates: 09.5500000°, -083.7500000°<br>Haplotype number: H1",CostaRica_SanJose_EU714434,EU714434,UV+,lineage C,"cylindrical, UV+",Costa Rica,"09.5500000°, -083.7500000°",H1,9.55,-83.75,9.55,-83.75,,
-83.75,9.55,T. vermicularis,"Sample ID new: CostaRica_SanJose_EU714435<br>DNA ID/GenBank NO: EU714435<br>chemotype: UV-<br>lineage: T. vermicularis<br>Phenotype: cylindrical, UV-<br>Country: Costa Rica<br>GPS coordinates: 09.5500000°,  -083.7500000°<br>Haplotype number: H1",CostaRica_SanJose_EU714435,EU714435,UV-,T. vermicularis,"cylindrical, UV-",Costa Rica,"09.5500000°, -083.7500000°",H1,9.55,-83.75,9.55,-83.75,,
18.1966,56.9396361,T. vermicularis v. subuliformis,"Sample ID new: Sweden_Gotland_04<br>DNA ID/GenBank NO: 4<br>chemotype: UV+<br>lineage: lineage C<br>Phenotype: cylindrical, UV+<br>Country: Sweden<br>GPS coordinates:  56.9396361°, 018.1966000°<br>Haplotype number: H1",Sweden_Gotland_04,4,UV+,lineage C,"cylindrical, UV+",Sweden," 56.9396361°, 018.1966000°",H1,56.9396361,18.1966,56.9396361,18.1966,KY559182,
18.1966,56.9396361,T. vermicularis v. subuliformis,"Sample ID new: Sweden_Gotland_63<br>DNA ID/GenBank NO: 63<br>chemotype: UV+<br>lineage: lineage C<br>Phenotype: cylindrical, UV+<br>Country: Sweden<br>GPS coordinates:  56.9396361°, 018.1966000°<br>Haplotype number: H1",Sweden_Gotland_63,63,UV+,lineage C,"cylindrical, UV+",Sweden," 56.9396361°, 018.1966000°",H1,56.9396361,18.1966,56.9396361,18.1966,KY559200,
18.1966,56.9396361,T. vermicularis v. subuliformis,"Sample ID new: Sweden_Gotland_64<br>DNA ID/GenBank NO: 64<br>chemotype: UV+<br>lineage: lineage C<br>Phenotype: cylindrical, UV+<br>Country: Sweden<br>GPS coordinates:  56.9396361°, 018.1966000°<br>Haplotype number: H1",Sweden_Gotland_64,64,UV+,lineage C,"cylindrical, UV+",Sweden," 56.9396361°, 018.1966000°",H1,56.9396361,18.1966,56.9396361,18.1966,KY559201,
18.1966,56.9396361,T. vermicularis v. subuliformis,"Sample ID new: Sweden_Gotland_65<br>DNA ID/GenBank NO: 65<br>chemotype: UV+<br>lineage: lineage C<br>Phenotype: cylindrical, UV+<br>Country: Sweden<br>GPS coordinates:  56.9396361°, 018.1966000°<br>Haplotype number: H1",Sweden_Gotland_65,65,UV+,lineage C,"cylindrical, UV+",Sweden," 56.9396361°, 018.1966000°",H1,56.9396361,18.1966,56.9396361,18.1966,KY559202,
18.1966,56.9396361,T. vermicularis v. subuliformis,"Sample ID new: Sweden_Gotland_71<br>DNA ID/GenBank NO: 71<br>chemotype: UV+<br>lineage: lineage C<br>Phenotype: cylindrical, UV+<br>Country: Sweden<br>GPS coordinates:  56.9396361°, 018.1966000°<br>Haplotype number: H1",Sweden_Gotland_71,71,UV+,lineage C,"cylindrical, UV+",Sweden," 56.9396361°, 018.1966000°",H1,56.9396361,18.1966,56.9396361,18.1966,KY559203,
18.72,68.3601167,T. vermicularis v. subuliformis,"Sample ID new: Sweden_Abisko_226<br>DNA ID/GenBank NO: 226<br>chemotype: UV+<br>lineage: lineage C<br>Phenotype: cylindrical, UV+<br>Country: Sweden<br>GPS coordinates:  68.3601167°, 018.7200000°<br>Haplotype number: H1",Sweden_Abisko_226,226,UV+,lineage C,"cylindrical, UV+",Sweden," 68.3601167°, 018.7200000°",H1,68.3601167,18.72,68.3601167,18.72,KY559141,
18.72,68.3601167,T. vermicularis,"Sample ID new: Sweden_Abisko_229<br>DNA ID/GenBank NO: 229<br>chemotype: UV-<br>lineage: T. vermicularis<br>Phenotype: cylindrical, UV-<br>Country: Sweden<br>GPS coordinates:  68.3601167°, 018.7200000°<br>Haplotype number: H1",Sweden_Abisko_229,229,UV-,T. vermicularis,"cylindrical, UV-",Sweden," 68.3601167°, 018.7200000°",H1,68.3601167,18.72,68.3601167,18.72,KY559220,
18.72,68.3601167,T. vermicularis,"Sample ID new: Sweden_Abisko_234<br>DNA ID/GenBank NO: 234<br>chemotype: UV-<br>lineage: T. vermicularis<br>Phenotype: cylindrical, UV-<br>Country: Sweden<br>GPS coordinates:  68.3601167°, 018.7200000°<br>Haplotype number: H1",Sweden_Abisko_234,234,UV-,T. vermicularis,"cylindrical, UV-",Sweden," 68.3601167°, 018.7200000°",H1,68.3601167,18.72,68.3601167,18.72,KY559221,
18.72,68.3601167,T. vermicularis v. subuliformis,"Sample ID new: Sweden_Abisko_235<br>DNA ID/GenBank NO: 235<br>chemotype: UV+<br>lineage: lineage C<br>Phenotype: cylindrical, UV+<br>Country: Sweden<br>GPS coordinates:  68.3601167°, 018.7200000°<br>Haplotype number: H1",Sweden_Abisko_235,235,UV+,lineage C,"cylindrical, UV+",Sweden," 68.3601167°, 018.7200000°",H1,68.3601167,18.72,68.3601167,18.72,KY559142,
18.1212472,67.5872222,T. vermicularis v. subuliformis,"Sample ID new: Sweden_Gaelivare_72<br>DNA ID/GenBank NO: 72<br>chemotype: UV+<br>lineage: lineage C<br>Phenotype: cylindrical, UV+<br>Country: Sweden<br>GPS coordinates:  67.5872222°, 018.1212472°<br>Haplotype number: H1",Sweden_Gaelivare_72,72,UV+,lineage C,"cylindrical, UV+",Sweden," 67.5872222°, 018.1212472°",H1,67.5872222,18.1212472,67.5872222,18.1212472,KY559169,
14.1398833,66.2898667,T. vermicularis v. subuliformis,"Sample ID new: Sweden_MoiRana_05<br>DNA ID/GenBank NO: 5<br>chemotype: UV+<br>lineage: lineage C<br>Phenotype: cylindrical, UV+<br>Country: Sweden<br>GPS coordinates:  66.2898667°, 014.1398833°<br>Haplotype number: H1",Sweden_MoiRana_05,5,UV+,lineage C,"cylindrical, UV+",Sweden," 66.2898667°, 014.1398833°",H1,66.2898667,14.1398833,66.2898667,14.1398833,KY559125,
14.1398833,66.2898667,T. vermicularis v. subuliformis,"Sample ID new: Sweden_MoiRana_37<br>DNA ID/GenBank NO: 37<br>chemotype: UV+<br>lineage: lineage C<br>Phenotype: cylindrical, UV+<br>Country: Sweden<br>GPS coordinates:  66.2898667°, 014.1398833°<br>Haplotype number: H1",Sweden_MoiRana_37,37,UV+,lineage C,"cylindrical, UV+",Sweden," 66.2898667°, 014.1398833°",H1,66.2898667,14.1398833,66.2898667,14.1398833,KY559162,
14.1398833,66.2898667,T. vermicularis v. subuliformis,"Sample ID new: Sweden_MoiRana_38<br>DNA ID/GenBank NO: 38<br>chemotype: UV+<br>lineage: lineage C<br>Phenotype: cylindrical, UV+<br>Country: Sweden<br>GPS coordinates:  66.2898667°, 014.1398833°<br>Haplotype number: H1",Sweden_MoiRana_38,38,UV+,lineage C,"cylindrical, UV+",Sweden," 66.2898667°, 014.1398833°",H1,66.2898667,14.1398833,66.2898667,14.1398833,KY559163,
14.1398833,66.2898667,T. vermicularis v. subuliformis,"Sample ID new: Sweden_MoiRana_39<br>DNA ID/GenBank NO: 39<br>chemotype: UV+<br>lineage: lineage C<br>Phenotype: cylindrical, UV+<br>Country: Sweden<br>GPS coordinates:  66.2898667°, 014.1398833°<br>Haplotype number: H1",Sweden_MoiRana_39,39,UV+,lineage C,"cylindrical, UV+",Sweden," 66.2898667°, 014.1398833°",H1,66.2898667,14.1398833,66.2898667,14.1398833,KY559164,
14.1398833,66.2898667,T. vermicularis v. subuliformis,"Sample ID new: Sweden_MoiRana_44<br>DNA ID/GenBank NO: 44<br>chemotype: UV+<br>lineage: lineage C<br>Phenotype: cylindrical, UV+<br>Country: Sweden<br>GPS coordinates:  66.2898667°, 014.1398833°<br>Haplotype number: H1",Sweden_MoiRana_44,44,UV+,lineage C,"cylindrical, UV+",Sweden," 66.2898667°, 014.1398833°",H1,66.2898667,14.1398833,66.2898667,14.1398833,KY559165,
15.2307889,65.4329111,T. vermicularis v. subuliformis,"Sample ID new: Sweden_Taerna_219.1<br>DNA ID/GenBank NO: 219.1<br>chemotype: UV+<br>lineage: lineage C<br>Phenotype: cylindrical, UV+<br>Country: Sweden<br>GPS coordinates: 65.4329111°,   015.2307889°<br>Haplotype number: H1",Sweden_Taerna_219.1,219.1,UV+,lineage C,"cylindrical, UV+",Sweden,"65.4329111°,   015.2307889°",H1,65.4329111,  015.2307889 ,65.4329111,  015.2307889 ,KY559140,
15.2307889,65.4329111,T. vermicularis v. subuliformis,"Sample ID new: Sweden_Taerna_219.2<br>DNA ID/GenBank NO: 219.2<br>chemotype: UV+<br>lineage: lineage C<br>Phenotype: cylindrical, UV+<br>Country: Sweden<br>GPS coordinates: 65.4329111°,   015.2307889°<br>Haplotype number: H1",Sweden_Taerna_219.2,219.2,UV+,lineage C,"cylindrical, UV+",Sweden,"65.4329111°,   015.2307889°",H1,65.4329111,  015.2307889 ,65.4329111,  015.2307889 ,KY559240,KY559109
16.5557222,68.528,T. vermicularis v. subuliformis,"Sample ID new: Norway_Troms_EU714430<br>DNA ID/GenBank NO: EU714430<br>chemotype: UV+<br>lineage: lineage C<br>Phenotype: cylindrical, UV+<br>Country: Norway<br>GPS coordinates: 68.5280000°,   016.5557222°<br>Haplotype number: H1",Norway_Troms_EU714430,EU714430,UV+,lineage C,"cylindrical, UV+",Norway,"68.5280000°, 016.5557222°",H1,68.528,16.5557222,68.528,16.5557222,,
16.5557222,68.528,T. vermicularis v. subuliformis,"Sample ID new: Norway_Troms_EU714431<br>DNA ID/GenBank NO: EU714431<br>chemotype: UV+<br>lineage: lineage C<br>Phenotype: cylindrical, UV+<br>Country: Norway<br>GPS coordinates: 68.5280000°,   016.5557222°<br>Haplotype number: H1",Norway_Troms_EU714431,EU714431,UV+,lineage C,"cylindrical, UV+",Norway,"68.5280000°, 016.5557222°",H1,68.528,16.5557222,68.528,16.5557222,,
170.849575,-43.2167639,T. vermicularis v. subuliformis,"Sample ID new: NZ_AY961604<br>DNA ID/GenBank NO: AY961604<br>chemotype: UV+<br>lineage: lineage C<br>Phenotype: cylindrical, UV+<br>Country: New Zeeland<br>GPS coordinates:  -43.2167639°, 170.8495750°<br>Haplotype number: H1",NZ_AY961604,AY961604,UV+,lineage C,"cylindrical, UV+",New Zeeland," -43.2167639°, 170.8495750°",H1,-43.2167639,170.849575,-43.2167639,170.849575,,
170.849575,-43.2167639,T. vermicularis v. subuliformis,"Sample ID new: NZ_AY961605<br>DNA ID/GenBank NO: AY961605<br>chemotype: UV+<br>lineage: lineage C<br>Phenotype: cylindrical, UV+<br>Country: New Zeeland<br>GPS coordinates:  -43.2167639°, 170.8495750°<br>Haplotype number: H1",NZ_AY961605,AY961605,UV+,lineage C,"cylindrical, UV+",New Zeeland," -43.2167639°, 170.8495750°",H1,-43.2167639,170.849575,-43.2167639,170.849575,,
-72.0314139,-13.5148472,T. vermicularis,"Sample ID new: Peru_Cusco_JQ409343<br>DNA ID/GenBank NO: JQ409343<br>chemotype: UV-<br>lineage: T. vermicularis<br>Phenotype: cylindrical, UV-<br>Country: Peru<br>GPS coordinates:  -13.5148472°, -072.0314139°<br>Haplotype number: H7",Peru_Cusco_JQ409343,JQ409343,UV-,T. vermicularis,"cylindrical, UV-",Peru," -13.5148472°, -072.0314139°",H7,-13.5148472,-72.0314139,-13.5148472,-72.0314139,,
-72.0314139,-13.5148472,T. vermicularis v. subuliformis,"Sample ID new: Peru_Cusco_JQ409349<br>DNA ID/GenBank NO: JQ409343<br>chemotype: UV+<br>lineage: lineage C<br>Phenotype: cylindrical, UV+<br>Country: Peru<br>GPS coordinates:  -13.5148472°, -072.0314139°<br>Haplotype number: H1",Peru_Cusco_JQ409349,JQ409343,UV+,lineage C,"cylindrical, UV+",Peru," -13.5148472°, -072.0314139°",H1,-13.5148472,-72.0314139,-13.5148472,-72.0314139,,
99.7118889,26.6306111,T. vermicularis v. subuliformis,"Sample ID new: China_Yunnan_EU714432<br>DNA ID/GenBank NO: EU714432<br>chemotype: UV+<br>lineage: lineage C<br>Phenotype: cylindrical, UV+<br>Country: China<br>GPS coordinates: 26.6306111°,   099.7118889°<br>Haplotype number: H1",China_Yunnan_EU714432,EU714432,UV+,lineage C,"cylindrical, UV+",China,"26.6306111°,   099.7118889°",H1,26.6306111,  099.7118889 ,26.6306111,  099.7118889 ,,
99.7118889,26.6306111,T. vermicularis v. subuliformis,"Sample ID new: China_Yunnan_EU714433<br>DNA ID/GenBank NO: EU714433<br>chemotype: UV+<br>lineage: lineage C<br>Phenotype: cylindrical, UV+<br>Country: China<br>GPS coordinates: 26.6306111°,   099.7118889°<br>Haplotype number: H1",China_Yunnan_EU714433,EU714433,UV+,lineage C,"cylindrical, UV+",China,"26.6306111°,   099.7118889°",H1,26.6306111,  099.7118889 ,26.6306111,  099.7118889 ,,
99.7118889,26.6306111,T. vermicularis,"Sample ID new: China_Yunnan_EU714436<br>DNA ID/GenBank NO: EU714436<br>chemotype: UV-<br>lineage: T. vermicularis<br>Phenotype: cylindrical, UV-<br>Country: China<br>GPS coordinates: 26.6306111°,   099.7118889°<br>Haplotype number: H1",China_Yunnan_EU714436,EU714436,UV-,T. vermicularis,"cylindrical, UV-",China,"26.6306111°,   099.7118889°",H1,26.6306111,  099.7118889 ,26.6306111,  099.7118889 ,,
100.1019444,25.685,T. vermicularis,"Sample ID new: China_Yunnan_EU714437<br>DNA ID/GenBank NO: EU714437<br>chemotype: UV-<br>lineage: T. vermicularis<br>Phenotype: cylindrical, UV-<br>Country: China<br>GPS coordinates: 25.6850000°,   100.1019444°<br>Haplotype number: H1",China_Yunnan_EU714437,EU714437,UV-,T. vermicularis,"cylindrical, UV-",China,"25.6850000°, 100.1019444°",H1,25.685,100.1019444,25.685,100.1019444,,
16.5934472,56.6636972,T. vermicularis v. subuliformis,"Sample ID new: Sweden_Öland_20<br>DNA ID/GenBank NO: 20<br>chemotype: UV+<br>lineage: lineage C<br>Phenotype: cylindrical, UV+<br>Country: Sweden<br>GPS coordinates:  56.6636972°, 016.5934472°<br>Haplotype number: H1",Sweden_Öland_20,20,UV+,lineage C,"cylindrical, UV+",Sweden," 56.6636972°, 016.5934472°",H1,56.6636972,16.5934472,56.6636972,16.5934472,KY559191,